,latitud,provincia,altitud,indicativo,nombre,indsinop,longitud,latitud_dd,longitud_dd,codigo_postal
0,394924N,ILLES BALEARS,490,B013X,"ESCORCA, LLUC",08304,025309E,39.82333333333334,25.5025,
1,394744N,ILLES BALEARS,5,B051A,"SÓLLER, PUERTO",08316,024129E,39.79555555555555,24.2025,
2,393446N,ILLES BALEARS,52,B103B,ANDRATX - SANT ELM,,022208E,39.57944444444445,22.335555555555555,
3,393305N,ILLES BALEARS,50,B158X,"CALVIÀ, ES CAPDELLÀ",,022759E,39.55138888888889,23.2525,
4,394121N,ILLES BALEARS,60,B087X,BANYALBUFAR,,023046E,39.689166666666665,23.06833333333333,
5,393315N,ILLES BALEARS,3,B228,"PALMA, PUERTO",08301,023731E,39.55416666666667,24.216944444444444,
6,394406N,ILLES BALEARS,1030,B248,"SIERRA DE ALFABIA, BUNYOLA",08303,024247E,39.735,24.401944444444442,
7,393621N,BALEARES,47,B275E,"SON BONET, AEROPUERTO",08302,024224E,39.60583333333334,24.36777777777778,
8,393832N,ILLES BALEARS,95,B236C,"PALMA, UNIVERSITAT",,023838E,39.64222222222222,24.385555555555555,
9,392247N,ILLES BALEARS,113,B301,"LLUCMAJOR, CAP BLANC",08308,024706E,39.37972222222222,25.168333333333333,
10,392944N,ILLES BALEARS,140,B334X,LLUCMAJOR,,025330E,39.495555555555555,25.55,
11,393339N,BALEARES,5,B278,"PALMA DE MALLORCA, AEROPUERTO",08306,024412E,39.56083333333333,24.683888888888887,
12,392104N,ILLES BALEARS,3,B373X,"CAMPOS, SALINES LLEVANT",,030043E,39.35111111111111,30.0675,
13,393022N,ILLES BALEARS,149,B341X,PORRERES,,030020E,39.50611111111111,30.033333333333335,
14,393118N,ILLES BALEARS,120,B346X,PORRERES,08310,030109E,39.52166666666667,30.16916666666667,
15,392421N,ILLES BALEARS,40,B362X,"CAMPOS, CAN SION",,030351E,39.405833333333334,30.58361111111111,
16,390808N,ILLES BALEARS,165,B398A,"CABRERA, PARQUE NACIONAL DE CABRERA",,025612E,39.135555555555555,26.01722222222222,
17,392024N,ILLES BALEARS,45,B410B,SANTANYÍ,,030845E,39.34,31.40138888888889,
18,392452N,ILLES BALEARS,17,B434X,PORTOCOLOM  ,08309,031618E,39.41444444444444,32.01888888888889,
19,393749N,ILLES BALEARS,25,B496X,SON SERVERA,,032301E,39.63027777777778,32.500277777777775,
20,394119N,ILLES BALEARS,110,B526X,ARTÀ,,032104E,39.68861111111111,32.16777777777777,
21,394748N,ILLES BALEARS,2,B605X,"MURO, S'ALBUFERA",,030617E,39.79666666666667,31.01861111111111,
22,394323N,ILLES BALEARS,99,B603X,ARTÀ-COLÒNIA DE SANT PERE,,031643E,39.723055555555554,32.0675,
23,394300N,ILLES BALEARS,57,B569X,CAPDEPERA,08311,032841E,39.71666666666667,33.400277777777774,
24,393659N,ILLES BALEARS,95,B640X,PETRA,,030716E,39.61638888888889,31.185,
25,393325N,ILLES BALEARS,100,B614E,MANACOR,,031304E,39.55694444444444,31.50111111111111,
26,393909N,ILLES BALEARS,121,B656A,SANTA MARÍA DEL CAMÍ,,024801E,39.652499999999996,25.33361111111111,
27,393836N,ILLES BALEARS,120,B644B,SINEU,,030008E,39.64333333333333,30.002222222222223,
28,394041N,ILLES BALEARS,105,B662X,BINISSALEM,,025226E,39.67805555555555,25.368333333333332,
29,394454N,BALEARES,40,B691,LA PUEBLA (SA CANOVA),,030055E,39.748333333333335,30.084722222222222,
30,394734N,ILLES BALEARS,842,B684A,"ESCORCA, SON TORRELLA",,024716E,39.79277777777778,25.185,
31,395237N,ILLES BALEARS,45,B760X,POLLENÇA,,030127E,39.87694444444445,30.201944444444443,
32,395234N,ILLES BALEARS,78,B800X,"LA MOLA, MAÓ",,041926E,39.876111111111115,42.535,
33,394457N,BALEARES,32,B691Y,SA POBLA,08312,030100E,39.74916666666667,30.166666666666668,
34,395434N,ILLES BALEARS,2,B780X,PORT DE POLLENÇA,,030601E,39.909444444444446,31.00027777777778,
35,395641N,ILLES BALEARS,43,B870C,"CIUTADELLA, CALA GALDANA",,035724E,39.94472222222222,36.20111111111111,
36,395934N,ILLES BALEARS,20,B860X,CIUTADELLA,,035114E,39.99277777777778,35.18444444444444,
37,395117N,BALEARES,91,B893,"MENORCA, AEROPUERTO",08314,041256E,39.85472222222222,41.41833333333333,
38,395926N,ILLES BALEARS,80,B825B,ES MERCADAL,,040511E,39.99055555555556,40.85027777777778,
39,385747N,ILLES BALEARS,32,B925,SANT ANTONI DE PORTMANY,,011917E,38.963055555555556,12.51861111111111,
40,385522N,ILLES BALEARS,3,B957,EIVISSA,,012629E,38.922777777777775,13.035833333333333,
41,390322N,ILLES BALEARS,110,B908X,SANT JOAN DE LABRITJA,,012933E,39.05611111111111,13.550833333333333,
42,385235N,ILLES BALEARS,6,B954,"IBIZA, AEROPUERTO",08373,012304E,38.87638888888889,12.501111111111111,
43,285811N,LAS PALMAS,376,C018J,TÍAS,,134125W,28.96972222222222,-134.20138888888889,
44,384137N,ILLES BALEARS,24,B986,FORMENTERA,,012749E,38.69361111111111,13.235833333333334,
45,285132N,LAS PALMAS,6,C019V,YAIZA PLAYA BLANCA,,135006W,28.85888888888889,-135.00166666666667,
46,285707N,LAS PALMAS,14,C029O,LANZAROTE AEROPUERTO,60040,133601W,28.951944444444443,-134.00027777777777,
47,290837N,LAS PALMAS,277,C038N,HARÍA,,132921W,29.14361111111111,-133.5336111111111,
48,284521N,STA. CRUZ DE TENERIFE,2223,C101A,ROQUE DE LOS MUCHACHOS,,175343W,28.75583333333333,-175.5675,
49,290233N,LAS PALMAS,275,C048W,TINAJO,,134051W,29.0425,-134.0836111111111,
50,283545N,STA. CRUZ DE TENERIFE,62,C129Z,TAZACORTE,60004,175455W,28.59583333333333,-175.7513888888889,
51,284029N,STA. CRUZ DE TENERIFE,733,C117Z,TIJARAFE,,175612W,28.674722222222222,-176.01722222222224,
52,283914N,STA. CRUZ DE TENERIFE,844,C126A,EL PASO,,175111W,28.653888888888886,-175.1836111111111,
53,282718N,STA. CRUZ DE TENERIFE,19,C129V,FUENCALIENTE,,175028W,28.455,-175.03555555555556,
54,284538N,STA. CRUZ DE TENERIFE,684,C117A,PUNTAGORDA,,175908W,28.760555555555555,-176.50222222222223,
55,281231N,LAS PALMAS,1,C239N,"TUINEJE,PUERTO GRAN TARAJAL",,140123W,28.20861111111111,-140.20083333333332,
56,280257N,LAS PALMAS,15,C229J,PÁJARA,,142129W,28.049166666666668,-142.2025,
57,283759N,SANTA CRUZ DE TENERIFE,33,C139E,LA PALMA AEROPUERTO,60005,174518W,28.633055555555558,-174.85222222222222,
58,282501N,LAS PALMAS,252,C248E,ANTIGUA,,140109W,28.416944444444447,-140.16916666666665,
59,284817N,STA. CRUZ DE TENERIFE,362,C148F,SAN ANDRÉS Y SAUCES,,174656W,28.804722222222225,-175.085,
60,282641N,LAS PALMAS,25,C249I,FUERTEVENTURA AEROPUERTO,60035,135147W,28.44472222222222,-135.23527777777775,
61,280742N,STA. CRUZ DE TENERIFE,916,C316I,ARURE,,171854W,28.128333333333334,-172.41777777777776,
62,280625N,STA. CRUZ DE TENERIFE,1474,C314Z,"VALLEHERMOSO, ALTO IGUALERO  ",,171457W,28.106944444444444,-171.75194444444443,
63,283645N,LAS PALMAS,217,C258K,LA OLIVA,,135554W,28.6125,-135.91777777777776,
64,280315N,STA. CRUZ DE TENERIFE,190,C319W,"VALLEHERMOSO, DAMA",,171823W,28.054166666666667,-172.3675,
65,281044N,STA. CRUZ DE TENERIFE,765,C317B,AGULO,,171247W,28.17888888888889,-171.40194444444444,
66,280949N,STA. CRUZ DE TENERIFE,252,C328W,HERMIGUA,,171139W,28.16361111111111,-171.21916666666667,
67,280523N,STA. CRUZ DE TENERIFE,15,C329Z,SAN SEBASTIÁN DE LA GOMERA,60008,170641W,28.08972222222222,-171.06694444444443,
68,280154N,STA. CRUZ DE TENERIFE,219,C329B,"LA GOMERA, AEROPUERTO",60007,171239W,28.031666666666666,-171.38583333333332,
69,281327N,STA. CRUZ DE TENERIFE,2150,C406G,"LA OROTAVA, CAÑADAS TEIDE",,163734W,28.224166666666665,-164.21777777777777,
70,281311N,STA. CRUZ DE TENERIFE,2071,C412N,CITFAGRO_89_CHAVAO,,164219W,28.21972222222222,-164.3525,
71,281252N,STA. CRUZ DE TENERIFE,476,C418I,CITFAGRO_05_GUIAISO1,,164723W,28.214444444444442,-165.20083333333332,
72,281819N,STA. CRUZ DE TENERIFE,990,C415A,CITFAGRO_64_HOYOS,,164820W,28.30527777777778,-165.36666666666667,
73,281400N,STA. CRUZ DE TENERIFE,735,C417J,CITFAGRO_74_CHIO,,164721W,28.233333333333334,-165.20027777777776,
74,281201N,STA. CRUZ DE TENERIFE,700,C418L,CITFAGRO_76_POZO,,164547W,28.200277777777778,-164.90194444444444,
75,281019N,STA. CRUZ DE TENERIFE,1833,C422A,CITFAGRO_94_LOSTOPOS,,163905W,28.171944444444446,-164.5013888888889,
76,280453N,STA. CRUZ DE TENERIFE,130,C419X,ADEJE,,164238W,28.08138888888889,-164.38555555555556,
77,281225N,SANTA CRUZ DE TENERIFE,403,C419L,LOMO DEL BALO,60024,164731W,28.206944444444442,-165.21694444444444,
78,281327N,STA. CRUZ DE TENERIFE,1654,C423R,CITFAGRO_90_PICACHO,,163116W,28.224166666666665,-163.185,
79,280839N,STA. CRUZ DE TENERIFE,1258,C426E,CITFAGRO_13_VILAFLOR,,163741W,28.144166666666667,-164.2336111111111,
80,281301N,STA. CRUZ DE TENERIFE,930,C426R,CITFAGRO_09_HELECHO,,162926W,28.216944444444444,-163.535,
81,281051N,STA. CRUZ DE TENERIFE,418,C428T,ARICO,,162860W,28.180833333333336,-163.43333333333334,
82,280737N,STA. CRUZ DE TENERIFE,880,C426I,CITFAGRO_77_PINAL,,163621W,28.126944444444444,-164.0336111111111,
83,280752N,STA. CRUZ DE TENERIFE,135,C428U,CITFAGRO_01_ARICO,,162821W,28.13111111111111,-163.36694444444444,
84,281830N,SANTA CRUZ DE TENERIFE,2369,C430E,IZAÑA,60010,162959W,28.308333333333334,-163.58583333333334,
85,281935N,STA. CRUZ DE TENERIFE,290,C436I,CITFAGRO_54_TOPONEGRO,,162420W,28.32638888888889,-162.7,
86,280249N,SANTA CRUZ DE TENERIFE,64,C429I,TENERIFE SUR AEROPUERTO,60025,163340W,28.046944444444446,-163.56666666666666,
87,282214N,STA. CRUZ DE TENERIFE,525,C436L,CITFAGRO_96_ARAYA,,162351W,28.370555555555555,-162.5836111111111,
88,282133N,STA. CRUZ DE TENERIFE,463,C438N,CANDELARIA,,162406W,28.359166666666667,-162.66833333333332,
89,281611N,STA. CRUZ DE TENERIFE,500,C437E,CITFAGRO_81_MENA,,162511W,28.26972222222222,-162.85027777777776,
90,283135N,STA. CRUZ DE TENERIFE,868,C446G,"SAN CRISTÓBAL DE LA LAGUNA,LLANO DE LOS LOROS",,161649W,28.52638888888889,-162.06916666666666,
91,281906N,SANTA CRUZ DE TENERIFE,115,C439J,GÜÍMAR,60018,162256W,28.31833333333333,-162.41833333333332,
92,282839N,SANTA CRUZ DE TENERIFE,632,C447A,TENERIFE NORTE AEROPUERTO,60015,161946W,28.4775,-162.56833333333333,
93,283336N,STA. CRUZ DE TENERIFE,305,C449Q,CITFAGRO_97_TAGANANA,,161341W,28.560000000000002,-161.56694444444443,
94,282748N,SANTA CRUZ DE TENERIFE,36,C449C,STA.CRUZ DE TENERIFE,60020,161519W,28.46333333333333,-161.8525,
95,283029N,STA. CRUZ DE TENERIFE,19,C449F,ANAGA ,,161144W,28.508055555555554,-161.23444444444442,
96,282745N,STA. CRUZ DE TENERIFE,136,C448C,CITFAGRO_92_SANTACRUZ,,161624W,28.4625,-162.03444444444443,
97,282341N,STA. CRUZ DE TENERIFE,1744,C453I,CITFAGRO_88_GAITERO,,162600W,28.39472222222222,-163.0,
98,282142N,STA. CRUZ DE TENERIFE,1065,C455M,CITFAGRO_87_AGUAMANSA,,162949W,28.361666666666668,-163.56916666666666,
99,282658N,STA. CRUZ DE TENERIFE,650,C457E,CITFAGRO_67_MATANZA,,162617W,28.449444444444445,-163.0186111111111,
100,282222N,STA. CRUZ DE TENERIFE,551,C456R,CITFAGRO_69_SUERTE,,163231W,28.372777777777777,-163.3836111111111,
101,282714N,STA. CRUZ DE TENERIFE,922,C456E,CITFAGRO_10_RAVELO,,162431W,28.453888888888887,-162.71694444444444,
102,282141N,STA. CRUZ DE TENERIFE,906,C456P,CITFAGRO_70_BENIJO,,163248W,28.36138888888889,-163.40222222222224,
103,282207N,STA. CRUZ DE TENERIFE,595,C458U,CITFAGRO_71_PALOB,,163441W,28.36861111111111,-163.7336111111111,
104,282604N,STA. CRUZ DE TENERIFE,567,C457I,LA VICTORIA DE ACENTEJO,,162716W,28.434444444444445,-163.185,
105,282505N,STA. CRUZ DE TENERIFE,25,C459Z,PUERTO DE LA CRUZ,60012,163254W,28.418055555555558,-163.41777777777776,
106,282947N,STA. CRUZ DE TENERIFE,310,C458A,TACORONTE,,162512W,28.49638888888889,-162.85055555555556,
107,282112N,STA. CRUZ DE TENERIFE,525,C467I,CITFAGRO_73_REDON,,164230W,28.353333333333335,-164.38333333333333,
108,282201N,STA. CRUZ DE TENERIFE,218,C468I,CITFAGRO_98_ELDRAGO,,164320W,28.366944444444446,-164.53333333333333,
109,282021N,STA. CRUZ DE TENERIFE,878,C466O,CITFAGRO_91_CUBO,,164740W,28.339166666666664,-165.23333333333332,
110,282125N,STA. CRUZ DE TENERIFE,450,C468O,CITFAGRO_62_TRIGO,,164805W,28.356944444444444,-165.33472222222224,
111,282223N,STA. CRUZ DE TENERIFE,667,C468X,SAN JUAN DE LA RAMBLA,,163733W,28.373055555555556,-164.2175,
112,275942N,LAS PALMAS,1060,C614H,TEJEDA,60038,153657W,27.995,-154.08527777777778,
113,280025N,LAS PALMAS,1514,C612F,"TEJEDA, CRUZ DE TEJEDA",,153556W,28.006944444444443,-153.91833333333332,
114,275836N,LAS PALMAS,1702,C611E,VEGA DE SAN MATEO,,153502W,27.976666666666667,-153.8338888888889,
115,280003N,LAS PALMAS,10,C619I,LA ALDEA DE SAN NICOLÁS,60027,154850W,28.000833333333333,-155.41666666666666,
116,275536N,LAS PALMAS,1220,C623I,"SAN BARTOLOME TIRAJANA, CUEVAS DEL PINAR",,153559W,27.92666666666667,-153.91916666666665,
117,280604N,LAS PALMAS,5,C619X,AGAETE,,154246W,28.101111111111113,-154.40166666666667,
118,275125N,LAS PALMAS,806,C625O,"SAN BARTOLOME TIRAJANA, LOMO PEDRO ALFONSO",,153842W,27.856944444444444,-154.40055555555557,
119,275432N,LAS PALMAS,318,C628B,"LA ALDEA DE SAN NICOLÁS, TASARTE",,154612W,27.90888888888889,-155.01722222222224,
120,280004N,LAS PALMAS,13,C619Y,LA ALDEA DE SAN NICOLÁS,60027,154827W,28.00111111111111,-155.3686111111111,
121,274845N,LAS PALMAS,41,C639U,"SAN BARTOLOME TIRAJANA, EL MATORRAL",,152711W,27.8125,-153.1836111111111,
122,274529N,LAS PALMAS,45,C639M,"MASPALOMAS, C. INSULAR TURISMO ",,153432W,27.758055555555554,-153.71722222222223,
123,274648N,LAS PALMAS,10,C629Q,"MOGÁN, PUERTO RICO",,154240W,27.779999999999998,-154.4,
124,275512N,LAS PALMAS,960,C635B,"SAN BARTOLOME TIRAJANA, LAS TIRAJANAS",,153427W,27.92,-153.70194444444442,
125,274859N,LAS PALMAS,10,C629X,"MOGÁN, PUERTO",60036,154551W,27.81638888888889,-154.91694444444443,
126,275915N,LAS PALMAS,344,C648N,"TELDE, CENTRO FORESTAL DORAMAS",,152728W,27.9875,-153.20222222222222,
127,275912N,LAS PALMAS,9,C649R,"TELDE, MELENARA",,152240W,27.986666666666668,-152.4,
128,275504N,LAS PALMAS,24,C649I,GRAN CANARIA AEROPUERTO,60030,152343W,27.91777777777778,-152.5675,
129,275409N,LAS PALMAS,306,C648C,AGÜIMES,,152714W,27.9025,-153.18444444444444,
130,280431N,LAS PALMAS,683,C656V,TEROR,,153250W,28.075277777777778,-153.41666666666666,
131,280523N,LAS PALMAS,55,C659H,"LAS PALMAS DE GRAN CANARIA, SAN CRISTOBAL",60029,152458W,28.08972222222222,-152.75222222222223,
132,280430N,LAS PALMAS,269,C658L,LAS PALMAS DE G.C. (TAFIRA CMT),,152703W,28.075,-153.1675,
133,280441N,LAS PALMAS,269,C658X,"LAS PALMAS DE GRAN CANARIA, TAFIRA",,152712W,28.078055555555554,-153.1838888888889,
134,280647N,LAS PALMAS,15,C659M,"LAS PALMAS DE GRAN CANARIA, PL. DE LA FERIA",60032,152517W,28.113055555555558,-152.85194444444443,
135,280830N,LAS PALMAS,86,C669B,ARUCAS,,153024W,28.141666666666666,-153.03444444444443,
136,280356N,LAS PALMAS,900,C665T,VALLESECO,,153356W,28.065555555555555,-153.585,
137,280540N,LAS PALMAS,352,C668V,AGAETE - SUERTE ALTA,,154030W,28.094444444444445,-154.05,
138,274409N,LAS PALMAS,6,C689E,MASPALOMAS,60037,153545W,27.735833333333336,-153.9013888888889,
139,291355N,LAS PALMAS,10,C839I,TEGUISE,,133007W,29.231944444444444,-133.00194444444443,
140,291347N,LAS PALMAS,19,C839X,LA GRACIOSA,60045,133037W,29.22972222222222,-133.05194444444444,
141,274331N,STA. CRUZ DE TENERIFE,713,C917E,"EL PINAR, LA DEHESA",,180654W,27.725277777777777,-181.08444444444444,
142,273955N,STA. CRUZ DE TENERIFE,98,C919K,TACORON-LAPILLAS-TORTUGA,,180107W,27.665277777777778,-180.1686111111111,
143,274308N,STA. CRUZ DE TENERIFE,948,C916Q,"EL PINAR, DEPÓSITO",,175841W,27.718888888888888,-176.40027777777777,
144,274608N,STA. CRUZ DE TENERIFE,1070,C925F,"SAN ANDRÉS, VALVERDE",,175737W,27.76888888888889,-176.2186111111111,
145,274908N,SANTA CRUZ DE TENERIFE,32,C929I,HIERRO AEROPUERTO,60001,175320W,27.81888888888889,-175.53333333333333,
146,274523N,STA. CRUZ DE TENERIFE,20,C939T,"FRONTERA, SABINOSA",,180627W,27.75638888888889,-181.03527777777776,
147,274839N,STA. CRUZ DE TENERIFE,670,C928I,VALVERDE,,175510W,27.810833333333335,-175.85,
148,410842N,TARRAGONA,71,0016A,REUS AEROPUERTO,08175,010949E,41.144999999999996,11.569166666666666,
149,411250N,TARRAGONA,406,0009X,ALFORJA,,005748E,41.21388888888889,6.235555555555556,
150,411735N,TARRAGONA,233,0034X,VALLS,,011539E,41.293055555555554,11.885833333333332,
151,410915N,TARRAGONA,118,0016B,REUS (CENTRE LECTURA),,010632E,41.15416666666667,11.050555555555556,
152,405729N,TARRAGONA,32,0002I,VANDELLÒS  ,08169,005217E,40.95805555555556,5.351944444444444,
153,411949N,BARCELONA,177,0066X,VILAFRANCA DEL PENEDÈS,,014037E,41.33027777777778,14.051944444444445,
154,411438N,BARCELONA,58,0073X,SITGES,,015109E,41.24388888888889,15.169166666666666,
155,412501N,BARCELONA,632,0061X,PONTONS,,013109E,41.41694444444444,13.169166666666666,
156,410726N,TARRAGONA,55,0042Y,TARRAGONA ,,011457E,41.12388888888889,11.751944444444444,
157,411734N,BARCELONA,4,0076,BARCELONA AEROPUERTO,08181,020412E,41.29277777777778,20.683888888888887,
158,420605N,BARCELONA,682,0092X,BERGA,,015127E,42.10138888888889,15.201944444444443,
159,414848N,BARCELONA,742,0120X,MOIÀ,,020543E,41.81333333333333,20.90083333333333,
160,420025N,BARCELONA,700,0114X,PRATS DE LLUÇANÈS,,020136E,42.00694444444444,20.21833333333333,
161,415159N,BARCELONA,361,0106X,BALSARENY,,015221E,41.86638888888889,15.366944444444444,
162,414312N,BARCELONA,291,0149D,MANRESA (LA CULLA),,015025E,41.72,15.034722222222221,
163,413540N,BARCELONA,738,0158O,MONTSERRAT,,015021E,41.59444444444445,15.03361111111111,
164,414312N,BARCELONA,291,0149X,MANRESA,08174,015025E,41.72,15.034722222222221,
165,413540N,BARCELONA,738,0158X,MONISTROL DE MONTSERRAT,,015021E,41.59444444444445,15.03361111111111,
166,413444N,BARCELONA,313,0171X,IGUALADA,08172,013704E,41.57888888888889,14.167777777777777,
167,412429N,BARCELONA,647,0194D,"CORBERA, PUIG D'AGULLES",08179,015306E,41.408055555555556,15.501666666666667,
168,412506N,BARCELONA,408,0200E,"BARCELONA, FABRA",,020727E,41.41833333333333,21.201944444444443,
169,412230N,BARCELONA,11,0201X,"BARCELONA, DRASSANES",,021026E,41.375,21.035,
170,412326N,BARCELONA,26,0201D,"BARCELONA, PORT OLÍMPIC",08180,021200E,41.39055555555556,21.333333333333332,
171,413125N,BARCELONA,146,0229I,SABADELL AEROPUERTO,08192,020611E,41.52361111111111,21.016944444444444,
172,413903N,BARCELONA,40,0255B,SANTA SUSANNA,08188,024149E,41.65083333333333,24.235833333333336,
173,413514N,BARCELONA,74,0252D,ARENYS DE MAR,08186,023224E,41.58722222222222,23.36777777777778,
174,415804N,GIRONA,51,0294B,LA BISBAL (D'EMPORDA 3),,030232E,41.967777777777776,30.383888888888887,
175,421530N,GIRONA,851,0312X,SANT PAU DE SEGÚRIES,,022152E,42.25833333333333,22.250555555555554,
176,421901N,GIRONA,1151,0320I,PLANOLES,,020610E,42.316944444444445,21.016666666666666,
177,413018N,BARCELONA,56,0244X,VILASSAR DE DALT,,022145E,41.505,22.234722222222224,
178,414536N,BARCELONA,936,0260X,FOGARS DE MONTCLÚS,,022552E,41.76,22.91722222222222,
179,413646N,BARCELONA,175,0222X,CALDES DE MONTBUI,,021006E,41.61277777777778,21.001666666666665,
180,414037N,GIRONA,45,0281Y,BLANES,,024818E,41.676944444444445,25.352222222222224,
181,414828N,GIRONA,14,0284X,CASTELL D'ARO,,030151E,41.80777777777777,30.25027777777778,
182,421322N,GIRONA,731,0321,CAMPDEVANOL,,021002E,42.22277777777778,21.000555555555554,
183,421129N,GIRONA,675,0324A,RIPOLL,08118,021146E,42.19138888888889,21.235,
184,415048N,BARCELONA,611,0341,TONA (ESCOLA),,021336E,41.84666666666667,21.551666666666666,
185,420310N,GIRONA,337,0360X,LES PLANES D'HOSTOLES,,023304E,42.05277777777778,23.50111111111111,
186,415049N,BARCELONA,607,0341X,TONA,,021321E,41.846944444444446,21.533611111111114,
187,415534N,BARCELONA,578,0349,SANT JULIÀ  DE VILATORTA,08119,021903E,41.92611111111111,22.500833333333333,
188,415442N,GIRONA,143,0367,GIRONA AEROPUERTO,08184,024548E,41.91166666666666,24.90222222222222,
189,415251N,GIRONA,810,0363X,SANT HILARI,,023048E,41.880833333333335,23.06888888888889,
190,415820N,GIRONA,76,0370E,GIRONA,,024910E,41.97222222222222,25.516666666666666,
191,415848N,GIRONA,95,0370B,"GIRONA, ANTIC INSTITUT",,024931E,41.980000000000004,25.55027777777778,
192,420616N,GIRONA,157,0372C,PORQUERES,08120,024549E,42.10444444444445,24.9025,
193,420314N,GIRONA,1,0385X,L'ESTARTIT,,031205E,42.053888888888885,31.334722222222222,
194,421238N,GIRONA,350,0394X,LA VALL DE BIANYA,,022819E,42.21055555555556,23.352500000000003,
195,422324N,GIRONA,100,0421X,ESPOLLA,,030022E,42.39,30.03388888888889,
196,421329N,GIRONA,2,0411X,CASTELLÓ D'EMPÚRIES,,030535E,42.224722222222226,30.884722222222223,
197,422324N,GIRONA,100,0421E,ESPOLLA 'LES ALBERES',,030022E,42.39,30.03388888888889,
198,422313N,GIRONA,355,0413A,MAÇANET DE CABRENYS,,024520E,42.386944444444445,24.866666666666667,
199,421533N,GIRONA,45,0429X,FIGUERES,,025737E,42.259166666666665,26.21861111111111,
200,431643N,NAVARRA,54,1010X,BERA,,014033W,43.27861111111111,-14.050833333333333,
201,421909N,GIRONA,75,0433D,CABO DE CREUS,08121,031856E,42.31916666666667,32.41833333333333,
202,430809N,NAVARRA,183,1002Y,"BAZTAN, IRURITA",08030,013235W,43.13583333333333,-13.384722222222221,
203,432125N,GIPUZKOA,4,1014,"HONDARRIBIA, MALKARROA",08029,014732W,43.356944444444444,-15.217222222222222,
204,431935N,GIPUZKOA,120,1012P,IRUN,,014748W,43.32638888888889,-15.235555555555557,
205,432125N,GIPUZKOA,4,1014A,DONOSTIA / SAN SEBASTIÁN AEROPUERTO,08029,014732W,43.356944444444444,-15.217222222222222,
206,431250N,GIPUZKOA,165,1021X,"ERRENTERIA, AÑARBE",,015244W,43.21388888888889,-15.401111111111112,
207,431823N,GIPUZKOA,250,1024E,"DONOSTIA / SAN SEBASTIÁN, IGELDO",08027,020228W,43.30638888888888,-20.36888888888889,
208,431244N,NAVARRA,305,1021Y,ARTICUTZA (AUTOMATICA),,014752W,43.21222222222222,-15.250555555555556,
209,430329N,GIPUZKOA,290,1026X,ORDIZIA,,021103W,43.058055555555555,-21.1675,
210,430056N,GIPUZKOA,255,1025A,SEGURA,,021524W,43.01555555555556,-21.86777777777778,
211,430506N,NAVARRA,520,1033X,ARESO,,015703W,43.085,-16.1675,
212,430317N,GIPUZKOA,255,1025X,"BEASAIN, ARRIARAN",,021355W,43.05472222222222,-21.584722222222222,
213,430306N,GIPUZKOA,460,1037X,LEGAZPI,,022014W,43.05166666666666,-22.017777777777777,
214,430328N,ARABA/ALAVA,617,1044X,"ARAMAIO, ETXAGUEN",,023523W,43.05777777777777,-23.8675,
215,431021N,GIPUZKOA,180,1038X,AZPEITIA,,021602W,43.1725,-22.000555555555554,
216,430448N,GIPUZKOA,420,1037Y,ZUMARRAGA,08037,021903W,43.080000000000005,-22.500833333333333,
217,431808N,GIPUZKOA,28,1041A,ZUMAIA,08026,021504W,43.30222222222222,-21.834444444444443,
218,431902N,GIPUZKOA,150,1052A,MUTRIKU,,022350W,43.31722222222223,-22.583333333333332,
219,430818N,GIPUZKOA,470,1049N,ELGETA,,022945W,43.138333333333335,-23.568055555555556,
220,430130N,GIPUZKOA,308,1048X,ARETXABALETA,,022757W,43.025,-23.251944444444444,
221,431233N,GIPUZKOA,119,1050J,ELGOIBAR,08036,022448W,43.20916666666667,-22.735555555555557,
222,432033N,BIZKAIA,45,1056K,FORUA,,024016W,43.3425,-24.01833333333333,
223,432237N,BIZKAIA,12,1055B,LEKEITIO,08024,023037W,43.37694444444445,-23.051944444444445,
224,432230N,BIZKAIA,81,1059X,PUNTA GALEA,08059,030118W,43.375,-30.185555555555556,
225,432714N,BIZKAIA,93,1057B,MATXITXAKO,,024510W,43.45388888888889,-24.85,
226,430301N,ARABA/ALAVA,240,1060X,AMURRIO,,030020W,43.05027777777777,-30.033333333333335,
227,431210N,BIZKAIA,100,1074C,AMOREBIETA-ETXANO,,024222W,43.20277777777778,-24.36722222222222,
228,430547N,BIZKAIA,270,1064L,"OROZKO, IBARRA",,025137W,43.09638888888889,-25.21861111111111,
229,430557N,BIZKAIA,747,1069Y,"ABADIÑO, URKIOLA",,023839W,43.09916666666667,-24.385833333333334,
230,431050N,BIZKAIA,210,1078C,BALMASEDA,,031235W,43.18055555555555,-31.384722222222223,
231,431753N,BIZKAIA,42,1082,BILBAO AEROPUERTO,08025,025423W,43.29805555555556,-25.700833333333332,
232,431212N,BIZKAIA,208,1078I,GÜEÑES,08035,030617W,43.20333333333333,-31.01861111111111,
233,431339N,CANTABRIA,849,1103X,SAN ROQUE DE RIOMIERA,,034316W,43.2275,-34.51833333333333,
234,432348N,CANTABRIA,10,1096X,"BARCENA DE CICERO, TRETO",,032811W,43.39666666666667,-33.35027777777778,
235,431521N,CANTABRIA,80,1089U,RAMALES DE LA VICTORIA,,032815W,43.255833333333335,-33.35138888888889,
236,432341N,CANTABRIA,45,1083L,CASTRO URDIALES,08020,031402W,43.39472222222222,-31.66722222222222,
237,431647N,BIZKAIA,177,1083B,SOPUERTA,,031007W,43.27972222222222,-31.001944444444444,
238,432526N,CANTABRIA,3,1109,SANTANDER AEROPUERTO,08021,034932W,43.42388888888889,-35.550555555555555,
239,432543N,CANTABRIA,3,1109X,SANTANDER AEROPUERTO,08021,034953W,43.42861111111111,-35.58416666666667,
240,432928N,CANTABRIA,52,1111,SANTANDER,08023,034802W,43.49111111111111,-35.33388888888889,
241,432928N,CANTABRIA,51,1111X,SANTANDER,08023,034802W,43.49111111111111,-35.33388888888889,
242,432754N,CANTABRIA,64,1110,"SANTANDER, CIUDAD",,034908W,43.465,-35.50222222222222,
243,431444N,CANTABRIA,196,1124E,VILLACARRIEDO,,035058W,43.245555555555555,-35.08555555555556,
244,430849N,CANTABRIA,460,1135C,"LOS TOJOS, BÁRCENA MAYOR",,041251W,43.14694444444444,-41.41694444444444,
245,431619N,CANTABRIA,105,1152C,SAN FELICES DE BUELNA,,040255W,43.27194444444444,-40.418055555555554,
246,432131N,CANTABRIA,110,1154H,"TORRELAVEGA, SIERRAPANDO",,040139W,43.35861111111111,-40.219166666666666,
247,430838N,CANTABRIA,1100,1167B,"CAMALEÑO, FUENTE DE",,044846W,43.14388888888889,-45.401666666666664,
248,432336N,CANTABRIA,38,1159,SAN VICENTE DE LA BARQUERA,08017,042332W,43.39333333333333,-42.550555555555555,
249,430918N,CANTABRIA,1910,1167G,"MIRADOR DEL CABLE, PARQUE NACIONAL PICOS DE EUROPA",,044811W,43.155,-45.35027777777778,
250,431415N,ASTURIAS,1236,1178R,"SOTRES, PARQUE NACIONAL PICOS DE EUROPA",,044412W,43.237500000000004,-44.68388888888889,
251,430521N,CANTABRIA,1722,1167J,"CORISCAO, PARQUE NACIONAL PICOS DE EUROPA",,044626W,43.08916666666667,-45.035,
252,430843N,LEON,953,1178Y,"POSADA DE VALDEÓN, SOTO ",,045554W,43.14527777777778,-45.91777777777777,
253,431521N,CANTABRIA,940,1176A,TRESVISO,,044006W,43.255833333333335,-44.001666666666665,
254,431058N,CANTABRIA,250,1174I,"CILLÓRIGO DE LIÉBANA, TAMA",,043606W,43.18277777777777,-44.001666666666665,
255,431840N,ASTURIAS,458,1179B,CABRALES,,045110W,43.31111111111111,-45.18333333333333,
256,431560N,ASTURIAS,370,1186P,"AMIEVA, PANIZALES",,050709W,43.266666666666666,-51.16916666666666,
257,432513N,ASTURIAS,10,1183X,LLANES,08016,044453W,43.42027777777778,-44.75083333333333,
258,432240N,ASTURIAS,280,1199X,"PILOÑA, BARGAÉU",,052348W,43.37777777777778,-52.56888888888889,
259,432932N,ASTURIAS,30,1203D,COLUNGA,,051450W,43.492222222222225,-51.75,
260,433123N,ASTURIAS,26,1207U,"GIJÓN, CAMPUS",08065,053716W,43.52305555555555,-54.184999999999995,
261,433220N,ASTURIAS,3,1208,GIJÓN,,053815W,43.538888888888884,-54.35138888888889,
262,433401N,ASTURIAS,127,1212E,ASTURIAS AEROPUERTO,08011,060239W,43.566944444444445,-60.38583333333333,
263,433921N,ASTURIAS,100,1210X,CABO PEÑAS,08012,055055W,43.655833333333334,-55.084722222222226,
264,433335N,ASTURIAS,5,1208H,"GIJÓN, PUERTO",08014,054203W,43.55972222222222,-54.33416666666667,
265,433230N,ASTURIAS,22,1208A,GIJÓN. LA MERCED,,053943W,43.541666666666664,-54.5675,
266,430758N,ASTURIAS,370,1223P,"LENA, RONZÓN",,054922W,43.132777777777775,-55.53388888888889,
267,430543N,ASTURIAS,750,1226X,"ALLER, FELECHOSA",,052837W,43.09527777777778,-53.38527777777778,
268,425843N,ASTURIAS,1480,1221D,PAJARES-VALGRANDE,08031,054635W,42.978611111111114,-55.05138888888889,
269,431630N,ASTURIAS,170,1234P,"MIERES, BAIÑA",,054909W,43.275,-55.5025,
270,432112N,ASTURIAS,336,1249I,OVIEDO,08015,055227W,43.35333333333333,-55.368611111111115,
271,431725N,ASTURIAS,280,1272B,"TINEO, SOUTU",,062312W,43.290277777777774,-62.51722222222222,
272,430600N,ASTURIAS,670,1276F,POLA DE SOMIEDO,,061525W,43.1,-61.86805555555556,
273,432530N,ASTURIAS,240,1279X,"SALAS, CAMUÑO",,061351W,43.425,-61.58361111111111,
274,432112N,ASTURIAS,334,1249X,OVIEDO,08015,055226W,43.35333333333333,-55.36833333333333,
275,433409N,ASTURIAS,60,1283U,CABO BUSTO,08010,062812W,43.56916666666667,-63.35055555555556,
276,424607N,LUGO,1020,1297E,CERVANTES,,070103W,42.76861111111111,-70.1675,
277,432756N,ASTURIAS,410,1327A,"VILLAYÓN, ONETA",,064024W,43.46555555555556,-64.03444444444445,
278,430139N,ASTURIAS,780,1309C,"IBIAS, SAN ANTOLIN",,065306W,43.027499999999996,-65.50166666666667,
279,425719N,ASTURIAS,1310,1302F,DEGAÑA,,062821W,42.95527777777778,-63.36694444444444,
280,432553N,LUGO,125,1344X,MONDOÑEDO,,072142W,43.43138888888889,-72.23388888888888,
281,433129N,ASTURIAS,40,1331A,CASTROPOL,08009,070153W,43.52472222222222,-70.25083333333333,
282,433226N,LUGO,43,1342X,RIBADEO,,070459W,43.54055555555556,-70.7525,
283,432456N,ASTURIAS,340,1341B,"TARAMUNDI, OURIA",,070340W,43.41555555555556,-70.56666666666666,
284,433904N,LUGO,80,1347T,BURELA,,072126W,43.651111111111106,-72.20166666666667,
285,432835N,A CORUÑA,4,1354C,FERROL,08005,081544W,43.47638888888889,-81.90111111111112,
286,434710N,A CORUÑA,90,1351,ESTACA DE BARES,08004,074106W,43.78611111111111,-74.16833333333334,
287,431825N,A CORUÑA,98,1387E,A CORUÑA AEROPUERTO,08002,082219W,43.30694444444444,-82.35249999999999,
288,432148N,A CORUÑA,132,1387D,A CORUÑA BENS,08000,082631W,43.36333333333334,-83.05027777777778,
289,432645N,A CORUÑA,343,1363X,AS PONTES,,075141W,43.44583333333333,-75.23361111111112,
290,432157N,A CORUÑA,57,1387,A CORUÑA,08001,082517W,43.365833333333335,-82.85194444444444,
291,430938N,A CORUÑA,50,1393,CABO VILÁN,08006,091239W,43.160555555555554,-91.38583333333334,
292,430327N,A CORUÑA,287,1399,VIMIANZO,,090249W,43.0575,-90.4025,
293,425529N,A CORUÑA,230,1400,FISTERRA,08040,091729W,42.92472222222222,-92.2025,
294,431213N,A CORUÑA,98,1390X,"CARBALLO, DEPURADORA",,084240W,43.203611111111115,-84.4,
295,424801N,A CORUÑA,128,1435C,NOIA,,085234W,42.80027777777777,-85.38444444444445,
296,425317N,A CORUÑA,370,1428,SANTIAGO DE COMPOSTELA AEROPUERTO,08042,082438W,42.88805555555555,-82.71888888888888,
297,430216N,A CORUÑA,500,1410X,SOBRADO,,080120W,43.03777777777778,-80.2,
298,425607N,A CORUÑA,340,1406X,MAZARICOS,,085937W,42.93527777777778,-86.55194444444444,
299,424835N,LUGO,680,1446X,MONTERROSO,,074606W,42.80972222222222,-75.00166666666667,
300,423956N,PONTEVEDRA,463,1465U,LALIN-CRISTIMIL,,081133W,42.66555555555556,-81.2175,
301,424314N,A CORUÑA,685,1437O,MONTE IROITE,08043,085524W,42.720555555555556,-85.86777777777777,
302,423838N,A CORUÑA,10,1442U,BOIRO,,085332W,42.64388888888889,-85.55055555555555,
303,424240N,PONTEVEDRA,645,1455I,RODEIRO-VILAMAIOR,,075714W,42.711111111111116,-76.18444444444445,
304,424203N,PONTEVEDRA,435,1466A,SILLEDA,,081528W,42.700833333333335,-81.86888888888888,
305,424459N,A CORUÑA,210,1476R,"ROIS, CASAS DO PORTO",,084253W,42.749722222222225,-84.4175,
306,425234N,A CORUÑA,240,1475X,SANTIAGO DE COMPOSTELA,08041,083321W,42.876111111111115,-83.53361111111111,
307,424137N,PONTEVEDRA,269,1468X,A ESTRADA,,083007W,42.69361111111111,-83.00194444444445,
308,424418N,A CORUÑA,100,1473A,PADRÓN,08039,083738W,42.73833333333334,-84.21888888888888,
309,423505N,PONTEVEDRA,32,1477V,VILAGARCÍA DE AROUSA,,084629W,42.584722222222226,-85.03583333333333,
310,423456N,PONTEVEDRA,36,1477U,VILAGARCIA DE AROUSA,,084611W,42.58222222222223,-85.01694444444445,
311,422550N,PONTEVEDRA,19,1484,"PONTEVEDRA, INSTITUTO",,083850W,42.43055555555555,-84.41666666666667,
312,422618N,PONTEVEDRA,113,1484C,PONTEVEDRA,08044,083657W,42.43833333333333,-84.08527777777778,
313,422425N,PONTEVEDRA,395,1489A,A LAMA,,082704W,42.40694444444444,-83.16777777777779,
314,422346N,PONTEVEDRA,3,1486E,ESCUELA NAVAL DE MARÍN,08043,084225W,42.39611111111111,-84.36805555555554,
315,421419N,PONTEVEDRA,255,1495,VIGO AEROPUERTO,08045,083726W,42.23861111111111,-84.20166666666667,
316,430640N,LUGO,442,1505,LUGO AEROPUERTO,08008,072727W,43.111111111111114,-73.20194444444445,
317,421350N,PONTEVEDRA,120,1496X,VIGO ,,084327W,42.230555555555554,-84.53527777777778,
318,425043N,LUGO,403,1521I,O PÁRAMO,,072958W,42.84527777777778,-73.58555555555554,
319,425544N,LEON,958,1541B,VILLABLINO,,062002W,42.928888888888885,-62.00055555555556,
320,425954N,LUGO,442,1518A,LUGO,,073309W,42.998333333333335,-73.5025,
321,425150N,LUGO,1080,1521X,BECERREÁ,,071107W,42.86388888888889,-71.16861111111112,
322,425939N,ASTURIAS,1530,1542,PUERTO DE LEITARIEGOS,08052,062451W,42.994166666666665,-62.750277777777775,
323,423350N,LEON,532,1549,PONFERRADA,08053,063600W,42.56388888888888,-64.0,
324,422456N,OURENSE,315,1583X,O BARCO DE VALDEORRAS,,065935W,42.41555555555556,-66.55138888888888,
325,424558N,LEON,770,1561I,VEGA DE ESPINAREDA  ,,064025W,42.76611111111111,-64.03472222222221,
326,422022N,OURENSE,840,1631E,A POBRA DE TRIVES,08051,071657W,42.339444444444446,-72.08527777777778,
327,423154N,LUGO,291,1679A,MONFORTE DE LEMOS,,073039W,42.531666666666666,-73.0525,
328,423519N,LUGO,612,1658,FOLGOSO DO COUREL,,071130W,42.58861111111111,-71.21666666666667,
329,421537N,OURENSE,990,1639X,CHANDREXA DE QUEIXA,,072301W,42.26027777777778,-72.50027777777778,
330,421956N,OURENSE,148,1690B,"OURENSE,INSTITUTO",,075152W,42.33222222222223,-75.25055555555555,
331,421931N,OURENSE,146,1690A,OURENSE,08048,075135W,42.32527777777778,-75.21805555555555,
332,422805N,OURENSE,610,1696O,BEARIZ,,081641W,42.46805555555556,-82.06694444444445,
333,422517N,OURENSE,400,1700X,O CARBALLIÑO,08047,080533W,42.421388888888885,-80.88416666666667,
334,421760N,OURENSE,112,1701X,RIBADAVIA,,080745W,42.3,-81.23472222222222,
335,421058N,OURENSE,492,1706A,ALLARIZ,,074746W,42.18277777777777,-75.235,
336,421305N,PONTEVEDRA,560,1719,A CAÑIZA,,081652W,42.21805555555556,-82.08388888888888,
337,421056N,PONTEVEDRA,90,1723X,"PONTEAREAS, CANEDO   ",,082934W,42.18222222222222,-83.55111111111111,
338,415638N,PONTEVEDRA,55,1730E,O ROSAL,,085051W,41.943888888888885,-85.08361111111111,
339,420445N,OURENSE,616,1735X,XINZO DE LIMIA,08050,074401W,42.07916666666667,-74.66694444444445,
340,432238N,CANTABRIA,150,1740,"SANTILLANA DEL MAR, ALTAMIRA",,040728W,43.37722222222222,-41.202222222222225,
341,415945N,SORIA,1260,2017Y,"LA PÓVEDA DE SORIA, BARRIOMARTÍN",,022939W,41.99583333333334,-23.552500000000002,
342,415603N,OURENSE,730,1738U,MUIÑOS,,075920W,41.93416666666666,-76.53333333333333,
343,415804N,SORIA,1197,2005Y,"VINUESA, QUINTANAREJO",,024658W,41.967777777777776,-25.085555555555555,
344,413602N,SORIA,1100,2044B,LUBIA,,023027W,41.60055555555556,-23.03527777777778,
345,414630N,SORIA,1081,2030,SORIA,08148,022859W,41.775,-23.41916666666667,
346,412510N,SORIA,978,2048A,MORÓN DE ALMAZÁN,,022513W,41.419444444444444,-22.850833333333334,
347,414319N,SORIA,960,2084Y,UCERO,,030249W,41.721944444444446,-30.4025,
348,412059N,SORIA,1042,2059B,LA RIBA DE ESCALOTE,,024700W,41.349722222222226,-25.166666666666668,
349,413522N,SORIA,932,2092,BURGO DE OSMA,,030513W,41.589444444444446,-30.850833333333334,
350,412225N,SORIA,1150,2096B,LICERAS,,031505W,41.37361111111111,-31.834722222222222,
351,414445N,BURGOS,955,2106B,CORUÑA DEL CONDE,,032255W,41.74583333333334,-32.418055555555554,
352,413957N,BURGOS,790,2117D,ARANDA DE DUERO,08144,034434W,41.66583333333333,-34.717777777777776,
353,412222N,SEGOVIA,993,2135A,FRESNO DE CANTESPINO,,033026W,41.37277777777778,-33.035,
354,412752N,SEGOVIA,1135,2140A,ALDEANUEVA DE SERREZUELA,,034709W,41.464444444444446,-35.16916666666666,
355,413643N,VALLADOLID,725,2172Y,SARDÓN DE DUERO,,042420W,41.61194444444445,-42.7,
356,413535N,VALLADOLID,756,2166Y,PEÑAFIEL,,040729W,41.59305555555556,-41.2025,
357,411131N,SEGOVIA,1798,2150H,"LA PINILLA, ESTACIÓN DE ESQUÍ",08143,032831W,41.19194444444444,-33.38361111111111,
358,425214N,PALENCIA,1140,2235U,CERVERA DE PISUERGA,08058,043112W,42.870555555555555,-43.18388888888889,
359,412301N,SEGOVIA,795,2192C,CUÉLLAR,,041556W,41.38361111111111,-41.91833333333333,
360,424753N,PALENCIA,910,2243A,AGUILAR DE CAMPOO,,041638W,42.79805555555556,-42.05222222222222,
361,410802N,SEGOVIA,1107,2182C,PEDRAZA,,034725W,41.13388888888889,-35.20138888888889,
362,423126N,BURGOS,869,2285B,VILLADIEGO,,040004W,42.52388888888889,-40.00111111111111,
363,423408N,PALENCIA,908,2276B,VILLAELES DE VALDAVIA,,043430W,42.56888888888889,-43.71666666666667,
364,421504N,BURGOS,771,2290Y,PEDROSA DEL PRÍNCIPE,,041156W,42.25111111111111,-41.251666666666665,
365,420847N,BURGOS,1197,2302N,MONTERRUBIO DE LA DEMANDA,,030635W,42.146388888888886,-31.05138888888889,
366,414632N,SORIA,1039,2296A,ÓLVEGA,,015836W,41.775555555555556,-16.384999999999998,
367,415735N,BURGOS,1080,2298,PALACIOS DE LA SIERRA,08149,030754W,41.959722222222226,-31.25111111111111,
368,420619N,BURGOS,884,2311Y,VILLAMAYOR DE LOS MONTES,,034604W,42.10527777777778,-35.00111111111111,
369,422125N,BURGOS,891,2331,BURGOS AEROPUERTO,08075,033713W,42.356944444444444,-34.18416666666666,
370,422103N,PALENCIA,830,2374X,CARRIÓN DE LOS CONDES,08068,043702W,42.350833333333334,-44.16722222222222,
371,425338N,PALENCIA,1575,2362C,"VELILLA DEL RÍO CARRIÓN, CAMPORREDONDO DE ALBA",,044249W,42.89388888888889,-44.402499999999996,
372,415944N,PALENCIA,874,2400E,AUTILLA DEL PINO,08072,043610W,41.995555555555555,-44.016666666666666,
373,413827N,VALLADOLID,734,2422,VALLADOLID,08141,044515W,41.64083333333333,-44.85138888888889,
374,420018N,PALENCIA,750,2401,"PALENCIA, OBSERVATORIO",,043145W,42.005,-43.234722222222224,
375,420034N,PALENCIA,736,2401X,PALENCIA,,043338W,42.00944444444445,-43.55222222222222,
376,403236N,AVILA,1178,2430Y,MUÑOTELLO,,050239W,40.54333333333333,-50.38583333333333,
377,404944N,AVILA,920,2453E,GOTARRENDURA,,044431W,40.82888888888889,-44.716944444444444,
378,403924N,AVILA,1143,2444C,"ÁVILA, AYUNTAMIENTO",,044201W,40.656666666666666,-44.33361111111111,
379,403933N,AVILA,1130,2444,ÁVILA,08210,044047W,40.659166666666664,-44.06861111111112,
380,410417N,AVILA,820,2456B,AREVALO,,044348W,41.07138888888889,-44.56888888888889,
381,405648N,SEGOVIA,990,2465A,"SEGOVIA, INSTITUTO",,040657W,40.946666666666665,-41.08527777777778,
382,404735N,MADRID,1893,2462,PUERTO DE NAVACERRADA,08215,040038W,40.793055555555554,-40.05222222222222,
383,405643N,SEGOVIA,1008,2465,SEGOVIA,08213,040735W,40.945277777777775,-41.21805555555556,
384,402118N,SALAMANCA,1960,2491C,"LA COVATILLA, ESTACIÓN DE ESQUÍ",08205,054124W,40.355000000000004,-54.20111111111111,
385,404307N,SEGOVIA,1237,2471Y,SAN RAFAEL,,041243W,40.718611111111116,-41.40083333333333,
386,410735N,SEGOVIA,870,2482B,MIGUELAÑEZ,,042233W,41.12638888888889,-42.384166666666665,
387,411648N,VALLADOLID,786,2503B,"OLMEDO, DEPÓSITO DE AGUA",,044131W,41.28,-44.216944444444444,
388,411933N,VALLADOLID,740,2503X,OLMEDO,08142,044113W,41.325833333333335,-44.18416666666666,
389,412510N,VALLADOLID,724,2507Y,RUEDA,,045749W,41.419444444444444,-46.23583333333333,
390,405256N,AVILA,925,2512Y,RIVILLA DE BARAJAS,,050107W,40.882222222222225,-50.16861111111111,
391,414243N,VALLADOLID,846,2539,VALLADOLID AEROPUERTO,08140,045120W,41.71194444444445,-45.2,
392,413254N,ZAMORA,710,2536D,MORALES DEL TORO,,051617W,41.54833333333333,-52.01861111111111,
393,411412N,ZAMORA,811,2555B,FUENTESAUCO,,052853W,41.236666666666665,-53.4175,
394,411022N,VALLADOLID,755,2517A,FUENTE EL SOL,,045623W,41.172777777777775,-46.034166666666664,
395,423125N,PALENCIA,985,2568D,"SANTERVÁS DE LA VEGA, VILLAPÚN ",,045104W,42.52361111111111,-45.16777777777777,
396,413319N,ZAMORA,702,2565,CORESES,,053750W,41.555277777777775,-54.25,
397,420539N,VALLADOLID,782,2593D,VILLALÓN DE CAMPOS,,050228W,42.094166666666666,-50.36888888888889,
398,415233N,VALLADOLID,731,2604B,MEDINA DE RIOSECO,,050225W,41.87583333333333,-50.36805555555556,
399,415123N,ZAMORA,690,2611D,VILLAFÁFILA,,053533W,41.85638888888889,-53.884166666666665,
400,413056N,ZAMORA,656,2614,ZAMORA,08130,054407W,41.51555555555556,-54.66861111111111,
401,425730N,LEON,1090,2624C,RIAÑO,,050027W,42.958333333333336,-50.03527777777778,
402,423518N,LEON,916,2661,"LEÓN, VIRGEN DEL CAMINO",08055,053904W,42.58833333333334,-54.50111111111111,
403,430344N,LEON,1510,2630X,PUERTO DE SAN ISIDRO,08057,052237W,43.06222222222222,-52.38527777777778,
404,423558N,LEON,912,2661B,LEÓN AEROPUERTO,08055,053837W,42.599444444444444,-54.38527777777778,
405,423712N,LEON,916,2626Y,CUBILLAS DE RUEDA,,051136W,42.62,-51.218333333333334,
406,425308N,LEON,1120,2701D,"BARRIOS DE LUNA, MIÑERA",,055215W,42.885555555555555,-55.35138888888889,
407,423854N,LEON,995,2728B,"QUINTANA DEL CASTILLO, VILLAMECA",,060415W,42.64833333333333,-60.68472222222222,
408,421745N,LEON,788,2664B,VALENCIA DE DON JUAN,,053017W,42.295833333333334,-53.01861111111111,
409,422239N,LEON,1020,2737E,LAGUNAS DE SOMOZA,08123,061148W,42.3775,-61.23555555555556,
410,422759N,LEON,850,2742R,BUSTILLO DEL PÁRAMO,,054647W,42.46638888888889,-55.06861111111112,
411,422836N,LEON,919,2734D,ASTORGA,,060428W,42.47666666666667,-60.702222222222225,
412,420039N,ZAMORA,715,2755X,BENAVENTE,08056,054000W,42.01083333333333,-54.0,
413,420441N,ZAMORA,737,2777K,SANTIBAÑEZ DE VIDRIALES,,060026W,42.07805555555556,-60.035,
414,414708N,ZAMORA,711,2789H,POZUELO DE TABARA,,055432W,41.785555555555554,-55.717222222222226,
415,415629N,ZAMORA,850,2775X,VILLARDECIERVOS,08125,061647W,41.94138888888889,-62.06861111111112,
416,420457N,ZAMORA,933,2766E,"SANABRIA, ROBLEDA-CERVANTES",,063823W,42.0825,-64.36749999999999,
417,402119N,AVILA,1012,2828Y,BARCO DE AVILA,,053109W,40.35527777777778,-53.16916666666666,
418,404032N,SALAMANCA,865,2847X,PEDROSILLO DE LOS AIRES   ,,053836W,40.675555555555555,-54.385,
419,413202N,ZAMORA,790,2804F,VILLADEPERA,,060831W,41.53388888888889,-61.38361111111111,
420,402102N,AVILA,1525,2811A,NAVARREDONDA DE GREDOS,08206,050835W,40.35055555555556,-51.38472222222222,
421,411420N,ZAMORA,1003,2882D,PEÑAUSENDE,08135,055351W,41.23888888888889,-55.58361111111111,
422,404356N,SALAMANCA,897,2863C,PEDRAZA DE ALBA  ,,052158W,40.73222222222223,-52.25222222222222,
423,405734N,SALAMANCA,790,2867,SALAMANCA AEROPUERTO,08202,052954W,40.95944444444445,-53.58444444444444,
424,405727N,SALAMANCA,775,2870,SALAMANCA,08201,053944W,40.9575,-54.56777777777778,
425,405413N,SALAMANCA,817,2873X,BARBADILLO,,054647W,40.90361111111111,-55.06861111111112,
426,410041N,SALAMANCA,769,2916A,VITIGUDINO,08129,062616W,41.01138888888889,-63.01833333333333,
427,411816N,ZAMORA,804,2885K,FRESNO DE SAYAGO,,060120W,41.30444444444444,-60.2,
428,411546N,SALAMANCA,690,2891A,VILLARINO DE LOS AIRES,,062744W,41.26277777777778,-63.23444444444444,
429,403410N,SALAMANCA,1027,2918Y,EL MAÍLLO,,061325W,40.56944444444445,-61.53472222222222,
430,404710N,SALAMANCA,785,2914C,BOADILLA FUENTE SAN ESTEBAN,,061210W,40.78611111111111,-61.35,
431,403806N,SALAMANCA,680,2946X,SAELICES EL CHICO,08195,063600W,40.635,-64.0,
432,405105N,SALAMANCA,748,2926B,BAÑOBÁREZ,,063632W,40.85138888888889,-64.05055555555555,
433,402906N,SALAMANCA,805,2945A,EL BODÓN BASE AÉREA,,063437W,40.485,-63.718611111111116,
434,401748N,SALAMANCA,880,2930Y,NAVASFRÍAS,,064846W,40.29666666666667,-65.40166666666667,
435,415536N,OURENSE,380,2978X,VERÍN,,072519W,41.92666666666666,-72.85249999999999,
436,420138N,OURENSE,910,2969U,A GUDIÑA,,071059W,42.02722222222222,-71.08583333333333,
437,414100N,ZAMORA,840,2966D,ALCAÑICES  ,,061805W,41.68333333333333,-62.334722222222226,
438,405030N,GUADALAJARA,1062,3013,MOLINA DE ARAGÓN,08232,015244W,40.84166666666667,-15.401111111111112,
439,404530N,GUADALAJARA,1250,3021Y,ZAOREJAS,,021159W,40.75833333333333,-21.2525,
440,403418N,CUENCA,1214,3040Y,BETETA,,020435W,40.57166666666667,-20.718055555555555,
441,403149N,CUENCA,928,3044X,CAÑIZARES,08230,020900W,40.530277777777776,-21.5,
442,400043N,CUENCA,819,3094B,TARANCÓN,08277,030117W,40.011944444444445,-30.185277777777777,
443,402428N,GUADALAJARA,920,3085Y,PASTRANA,,025711W,40.407777777777774,-26.183611111111112,
444,405323N,MADRID,1159,3104Y,RASCAFRÍA,,035318W,40.88972222222222,-35.51888888888889,
445,395607N,TOLEDO,733,3099Y,OCAÑA,,032946W,39.93527777777778,-33.568333333333335,
446,400402N,MADRID,540,3100B,ARANJUEZ,08229,033246W,40.06722222222223,-33.401666666666664,
447,410013N,GUADALAJARA,910,3103,PANTANO EL VADO,,031807W,41.00361111111111,-32.33527777777778,
448,402706N,MADRID,664,3194U,"MADRID, CIUDAD UNIVERSITARIA",08220,034327W,40.45166666666667,-34.53527777777778,
449,403749N,GUADALAJARA,727,3168D,GUADALAJARA,08226,030901W,40.63027777777778,-31.50027777777778,
450,402654N,MADRID,665,3194Y,POZUELO DE ALARCÓN,,034848W,40.44833333333333,-35.40222222222222,
451,403300N,MADRID,672,3125Y,SAN SEBASTIÁN DE LOS REYES,,033700W,40.55,-34.166666666666664,
452,403933N,GUADALAJARA,639,3168C,"GUADALAJARA, EL SERRANILLO",08226,031024W,40.659166666666664,-31.034444444444446,
453,401842N,MADRID,533,3182Y,ARGANDA DEL REY,,032952W,40.31166666666666,-33.58388888888889,
454,404146N,MADRID,1004,3191E,COLMENAR VIEJO,08219,034554W,40.69611111111111,-34.91777777777777,
455,410511N,GUADALAJARA,1005,3130C,SIGÜENZA,08150,023705W,41.08638888888889,-24.168055555555558,
456,405906N,GUADALAJARA,990,3140Y,MANDAYONA,,024536W,40.985,-24.884999999999998,
457,403341N,MADRID,740,3126Y,"MADRID, EL GOLOSO",,034243W,40.561388888888885,-34.40083333333333,
458,410025N,MADRID,1030,3110C,BUITRAGO DEL LOZOYA,08146,033650W,41.00694444444444,-34.083333333333336,
459,402800N,MADRID,609,3129,MADRID AEROPUERTO,08221,033320W,40.46666666666667,-33.53333333333333,
460,403142N,MADRID,605,3170Y,ALCALA DE HENARES,,031723W,40.52833333333333,-32.200833333333335,
461,403805N,GUADALAJARA,685,3168A,"GUADALAJARA, INSTITUTO",,031000W,40.63472222222222,-31.0,
462,402919N,MADRID,607,3175,TORREJÓN DE ARDOZ,08227,032637W,40.48861111111111,-33.051944444444445,
463,410808N,MADRID,1450,3111D,SOMOSIERRA,08145,033450W,41.135555555555555,-33.75,
464,402232N,MADRID,690,3196,"MADRID, CUATRO VIENTOS",08223,034710W,40.37555555555556,-35.18333333333333,
465,402443N,MADRID,667,3195,"MADRID, RETIRO",08222,034041W,40.411944444444444,-34.066944444444445,
466,404555N,GUADALAJARA,835,3209Y,BRIHUEGA,,025227W,40.765277777777776,-25.36861111111111,
467,401450N,MADRID,594,3229Y,TIELMES,,031842W,40.24722222222222,-32.400555555555556,
468,394113N,TOLEDO,717,3254Y,MORA,,034650W,39.68694444444444,-35.083333333333336,
469,401758N,MADRID,620,3200,GETAFE,08224,034320W,40.29944444444444,-34.53333333333333,
470,394146N,TOLEDO,635,3245Y,TEMBLEQUE,,033021W,39.69611111111111,-33.03361111111111,
471,395134N,TOLEDO,540,3259,"TOLEDO, LORENZANA",,040132W,39.85944444444445,-40.217222222222226,
472,395305N,TOLEDO,513,3260B,TOLEDO,08272,040243W,39.88472222222222,-40.40083333333333,
473,404223N,MADRID,1532,3266A,PUERTO ALTO DEL LEÓN,08217,040831W,40.70638888888889,-41.38361111111111,
474,393249N,TOLEDO,917,3298X,SAN PABLO DE LOS MONTES,08270,042102W,39.54694444444444,-42.16722222222222,
475,403935N,MADRID,924,3268C,ALPEDRETE,,040103W,40.65972222222222,-40.1675,
476,393750N,TOLEDO,750,3305Y,NAVAHERMOSA,,042837W,39.63055555555555,-43.38527777777778,
477,401847N,MADRID,890,3330Y,ROZAS DE PUERTO REAL,,042914W,40.31305555555555,-43.51777777777777,
478,402023N,AVILA,1285,3319D,PUERTO DEL PICO,,050046W,40.33972222222222,-50.068333333333335,
479,402948N,MADRID,884,3343Y,VALDEMORILLO,,040340W,40.49666666666667,-40.56666666666667,
480,400630N,TOLEDO,560,3362Y,CASTILLO DE BAYUELA,,044050W,40.108333333333334,-44.083333333333336,
481,402540N,MADRID,763,3338,ROBLEDO DE CHAVELA,08212,041460W,40.42777777777778,-41.766666666666666,
482,402803N,AVILA,850,3337U,CEBREROS,,042721W,40.4675,-43.20027777777778,
483,393530N,CACERES,923,3386A,NAVALVILLAR DE IBOR,,052330W,39.59166666666667,-52.55,
484,400821N,AVILA,350,3422D,CANDELEDA,,051841W,40.13916666666667,-52.400277777777774,
485,400914N,CACERES,464,3423I,MADRIGAL DE LA VERA,,052224W,40.153888888888886,-52.367777777777775,
486,395731N,TOLEDO,372,3365A,TALAVERA DE LA REINA,08274,045149W,39.95861111111111,-45.23583333333333,
487,401719N,AVILA,630,3391,SOTILLO DE LA ADRADA,08208,043527W,40.28861111111111,-43.868611111111115,
488,394915N,CACERES,406,3448X,SERRADILLA,,060739W,39.82083333333334,-61.219166666666666,
489,395936N,TOLEDO,345,3427Y,OROPESA,,050652W,39.99333333333333,-51.08388888888889,
490,395645N,CACERES,269,3434X,NAVALMORAL DE LA MATA,08254,053457W,39.94583333333333,-53.75194444444445,
491,400640N,CACERES,690,3436D,GARGANTA LA OLLA,,054705W,40.111111111111114,-55.168055555555554,
492,394012N,CACERES,559,3455X,JARAICEJO,,054830W,39.669999999999995,-55.38333333333333,
493,392857N,CACERES,503,3463X,TRUJILLO,08263,055115W,39.4825,-55.18472222222222,
494,392751N,CACERES,523,3463Y,TRUJILLO,08263,055227W,39.46416666666667,-55.368611111111115,
495,392833N,CACERES,459,3469,"CÁCERES, CIUDAD",,062235W,39.475833333333334,-62.38472222222222,
496,392817N,CACERES,394,3469A,CÁCERES,08261,062020W,39.47138888888889,-62.03333333333333,
497,402429N,CACERES,470,3494U,NUÑOMORAL,,061423W,40.408055555555556,-61.700833333333335,
498,394726N,CACERES,373,3475X,CAÑAVERAL,,062235W,39.79055555555556,-62.38472222222222,
499,401122N,CACERES,393,3503,GUIJO DE GRANADILLA,,061003W,40.18944444444444,-61.00083333333333,
500,401531N,CACERES,991,3514B,TORNAVACAS,,054042W,40.25861111111111,-54.06722222222223,
501,400715N,CACERES,1260,3516X,PIORNAL,,054957W,40.12083333333334,-55.58527777777778,
502,401554N,CACERES,724,3504X,HERVÁS,,055140W,40.265,-55.233333333333334,
503,400451N,CACERES,351,3512X,MONTEHERMOSO,,062020W,40.08083333333334,-62.03333333333333,
504,401518N,CACERES,459,3531X,TORRECILLA DE LOS ANGELES,,062442W,40.255,-62.73388888888889,
505,395217N,CACERES,336,3540X,ZARZA LA MAYOR,,065136W,39.87138888888889,-65.21833333333333,
506,400013N,CACERES,313,3526X,CORIA,08251,063327W,40.00361111111111,-63.53527777777778,
507,401029N,CACERES,560,3536X,HOYOS,,064328W,40.17472222222222,-64.53555555555555,
508,400235N,CACERES,415,3519X,PLASENCIA,08252,060509W,40.043055555555554,-60.83583333333333,
509,385757N,ALBACETE,905,4007Y,OSSA DE MONTIEL,,024442W,38.965833333333336,-24.733888888888888,
510,401226N,CACERES,450,3547X,VALVERDE DEL FRESNO,,065346W,40.20722222222223,-65.56833333333333,
511,392539N,CACERES,321,3562X,ALISEDA,,064411W,39.427499999999995,-64.68361111111112,
512,392453N,CACERES,444,3576X,VALENCIA DE ALCÁNTARA,08260,071352W,39.414722222222224,-71.58388888888888,
513,393705N,CACERES,425,3565X,BROZAS,,064442W,39.61805555555556,-64.73388888888888,
514,392327N,CIUDAD REAL,640,4064Y,ALCAZAR DE SAN JUAN,,031257W,39.39083333333333,-31.41861111111111,
515,392931N,TOLEDO,690,4067,MADRIDEJOS,08273,033142W,39.49194444444444,-33.23388888888889,
516,400340N,CUENCA,875,4051Y,ALCÁZAR DEL REY,,024825W,40.06111111111111,-25.368055555555557,
517,393550N,TOLEDO,692,4061X,QUINTANAR DE LA ORDEN,08275,030254W,39.59722222222222,-30.41777777777778,
518,393101N,CUENCA,858,4089A,ALBERCA DE ZANCARA,,022945W,39.51694444444444,-23.568055555555556,
519,395025N,CUENCA,870,4075Y,VILLARES DEL SAZ,,023012W,39.84027777777778,-23.01722222222222,
520,391543N,ALBACETE,718,4091Y,VILLARROBLEDO,,023533W,39.261944444444445,-23.884166666666665,
521,400108N,CUENCA,1020,4070Y,ABIA DE OBISPALIA,,022343W,40.01888888888889,-22.5675,
522,392500N,CUENCA,728,4090Y,SAN CLEMENTE,08256,022514W,39.416666666666664,-22.851111111111113,
523,391009N,CIUDAD REAL,662,4103X,TOMELLOSO,08276,030027W,39.16916666666666,-30.03527777777778,
524,393319N,CUENCA,745,4095Y,BELMONTE,,024220W,39.555277777777775,-24.366666666666667,
525,390100N,ALBACETE,918,4096Y,MUNERA,,022920W,39.016666666666666,-23.533333333333335,
526,393922N,CUENCA,763,4093Y,OSA DE LA VEGA,,024536W,39.65611111111111,-24.884999999999998,
527,385916N,CIUDAD REAL,627,4121C,"CIUDAD REAL, INSTITUTO",,035545W,38.98777777777778,-35.90138888888889,
528,385921N,CIUDAD REAL,626,4121,CIUDAD REAL,08348,035513W,38.98916666666667,-35.850833333333334,
529,385703N,CIUDAD REAL,626,4116I,ALMAGRO / FAMET,08349,034431W,38.950833333333335,-34.716944444444444,
530,384415N,CIUDAD REAL,900,4138Y,VILLANUEVA DE LOS INFANTES,,030016W,38.737500000000004,-30.01833333333333,
531,384502N,CIUDAD REAL,700,4147X,VALDEPEÑAS,08351,032329W,38.75055555555556,-32.53583333333333,
532,391301N,CIUDAD REAL,587,4193Y,EL ROBLEDO,,041658W,39.216944444444444,-42.08555555555556,
533,392702N,CACERES,689,4236Y,PUERTO REY ,,050135W,39.45055555555556,-50.21805555555556,
534,383105N,CIUDAD REAL,804,4148,VISO DEL MARQUÉS,08345,033400W,38.518055555555556,-33.666666666666664,
535,391915N,CIUDAD REAL,651,4195E,"ALCORNOQUERA, PARQUE NACIONAL CABAÑEROS",,042342W,39.32083333333334,-42.56722222222223,
536,385353N,CIUDAD REAL,718,4210Y,ABENÓJAR,,041731W,38.89805555555556,-42.216944444444444,
537,390501N,CIUDAD REAL,531,4220X,PUEBLA DE DON RODRIGO,08271,043719W,39.08361111111111,-44.18583333333333,
538,392719N,CACERES,660,4245X,GUADALUPE,,051960W,39.45527777777778,-52.6,
539,382954N,CORDOBA,551,4267X,HINOJOSA DEL DUQUE,08335,050717W,38.498333333333335,-51.18527777777778,
540,382847N,BADAJOZ,542,4260,PERALEDA DEL ZAUCEJO,,053439W,38.47972222222222,-53.719166666666666,
541,382434N,CORDOBA,575,4263X,VALSEQUILLO,,052102W,38.409444444444446,-52.16722222222222,
542,391010N,BADAJOZ,447,4244X,HERRERA DEL DUQUE,08264,050344W,39.169444444444444,-50.56777777777778,
543,384431N,BADAJOZ,459,4325Y,CASTUERA,,053145W,38.74194444444444,-53.234722222222224,
544,391851N,CACERES,590,4339X,CAÑAMERO,,052208W,39.314166666666665,-52.33555555555556,
545,384631N,CIUDAD REAL,535,4300Y,ALMADÉN,,045043W,38.775277777777774,-45.0675,
546,390612N,BADAJOZ,313,4340,NAVALVILLAR DE PELA,,052741W,39.10333333333333,-53.23361111111111,
547,385720N,BADAJOZ,274,4358X,DON BENITO,08333,055250W,38.955555555555556,-55.416666666666664,
548,391658N,CACERES,413,4347X,ZORITA,,054237W,39.282777777777774,-54.38527777777778,
549,383435N,BADAJOZ,474,4362X,RETAMAL DE LLERENA,,055045W,38.57638888888889,-55.06805555555556,
550,385457N,BADAJOZ,228,4410X,MÉRIDA,08331,062308W,38.91583333333333,-62.50222222222222,
551,383306N,BADAJOZ,430,4395X,VILLAFRANCA DE LOS BARROS,,061824W,38.55166666666666,-62.367777777777775,
552,381354N,BADAJOZ,655,4386B,LLERENA,08336,060101W,38.23166666666667,-60.16694444444444,
553,382533N,BADAJOZ,433,4427X,ZAFRA,,062612W,38.42583333333333,-63.01722222222222,
554,384120N,BADAJOZ,371,4436Y,ALMENDRALEJO,,062140W,38.68888888888888,-62.233333333333334,
555,391151N,CACERES,467,4411C,ALCUESCAR,,061352W,39.1975,-61.58388888888889,
556,391036N,BADAJOZ,392,4468X,PUEBLA DE OBANDO,,063603W,39.17666666666666,-64.00083333333333,
557,391055N,BADAJOZ,283,4464X,ALBURQUERQUE,,065943W,39.18194444444444,-66.5675,
558,385300N,BADAJOZ,186,4452,BADAJOZ AEROPUERTO,08330,064850W,38.88333333333333,-65.41666666666667,
559,385310N,BADAJOZ,174,4478X,BADAJOZ,08329,070034W,38.88611111111111,-70.05111111111111,
560,382905N,BADAJOZ,170,4489X,ALCONCHEL,,071655W,38.484722222222224,-72.08472222222221,
561,384151N,BADAJOZ,275,4486X,OLIVENZA,,070504W,38.6975,-70.83444444444444,
562,380453N,BADAJOZ,771,4499X,MONESTERIO,,061619W,38.081388888888895,-62.01916666666666,
563,382822N,BADAJOZ,377,4492F,BARCARROTA,,065524W,38.47277777777778,-65.86777777777777,
564,381231N,BADAJOZ,602,4501X,FUENTE DE CANTOS,,061841W,38.20861111111111,-62.400277777777774,
565,382220N,BADAJOZ,247,4497X,VILLANUEVA DEL FRESNO,,070929W,38.37222222222222,-71.53583333333333,
566,381042N,BADAJOZ,586,4520X,FREGENAL DE LA SIERRA,,063942W,38.17833333333333,-64.56722222222221,
567,381755N,BADAJOZ,381,4511C,JEREZ DE LOS CABALLEROS,08337,064554W,38.29861111111111,-64.91777777777779,
568,375849N,HUELVA,267,4527X,AROCHE,,065833W,37.98027777777778,-66.38416666666667,
569,373313N,HUELVA,60,4541X,EL GRANADO,,073112W,37.55361111111111,-73.18388888888889,
570,371141N,HUELVA,3,4549Y,AYAMONTE,08381,072342W,37.19472222222222,-72.56722222222221,
571,371306N,HUELVA,15,4554X,CARTAYA,,070501W,37.218333333333334,-70.83361111111111,
572,375207N,HUELVA,572,4560Y,ALAJAR,08380,064030W,37.868611111111115,-64.05,
573,373552N,HUELVA,276,4589X,"ALOSNO, THARSIS",,070710W,37.59777777777778,-71.18333333333334,
574,374354N,HUELVA,270,4584X,EL CERRO DE ANDÉVALO,,065632W,37.73166666666667,-66.05055555555555,
575,373431N,HUELVA,280,4575X,VALVERDE DEL CAMINO,,064604W,37.57527777777778,-65.00111111111111,
576,372703N,HUELVA,145,4622X,VILLARRASA,,063812W,37.450833333333335,-64.35055555555554,
577,371524N,HUELVA,17,4605,HUELVA,,065659W,37.25666666666667,-66.08583333333333,
578,371642N,HUELVA,18,4642E,"HUELVA, RONDA ESTE",08383,065442W,37.27833333333333,-65.73388888888888,
579,355344N,CEUTA,200,5000A,"CEUTA, MONTE HACHO",,051732W,35.89555555555555,-52.217222222222226,
580,374038N,HUELVA,415,4608X,EL CAMPILLO,,063748W,37.67722222222222,-64.23555555555555,
581,375457N,JAEN,799,5038Y,CAZORLA,,030014W,37.91583333333333,-30.017777777777777,
582,375457N,JAEN,782,5038X,CAZORLA,08353,030014W,37.91583333333333,-30.017777777777777,
583,373021N,GRANADA,785,5047E,BAZA,08424,024406W,37.505833333333335,-24.668333333333333,
584,355319N,CEUTA,87,5000C,CEUTA,60320,052049W,35.88861111111111,-52.06916666666667,
585,371128N,GRANADA,1534,5103F,"CAMARATE, PARQUE NACIONAL SIERRA NEVADA",,031514W,37.191111111111105,-31.851111111111113,
586,371048N,GRANADA,1197,5107D,DÓLAR,,025911W,37.18,-26.516944444444444,
587,375141N,GRANADA,1100,5051X,HUÉSCAR,08423,023910W,37.86138888888889,-24.516666666666666,
588,370930N,GRANADA,2152,5103E,"CAMARATE 2, PARQUE NACIONAL SIERRA NEVADA",,031525W,37.15833333333333,-31.868055555555557,
589,375139N,ALMERIA,1190,5060X,VÉLEZ BLANCO - TOPARES,,021341W,37.86083333333333,-21.566944444444445,
590,374651N,JAEN,910,5165X,TORRES,,033349W,37.780833333333334,-33.56916666666667,
591,382921N,JAEN,862,5192,VILLARRODRIGO,08354,023815W,38.48916666666667,-24.35138888888889,
592,375948N,JAEN,771,5164B,BAEZA,,032743W,37.99666666666667,-33.23416666666667,
593,381853N,JAEN,580,5181D,ARROYO DEL OJANCO,08352,025323W,38.31472222222222,-25.534166666666668,
594,381030N,JAEN,680,5210X,VILLANUEVA DEL ARZOBISPO,,025953W,38.175,-26.584166666666665,
595,380904N,JAEN,515,5279X,LINARES,,033746W,38.151111111111106,-34.235,
596,382040N,JAEN,770,5246,SANTA ELENA,08350,033207W,38.34444444444445,-33.33527777777778,
597,374635N,JAEN,510,5270,"JAÉN, INSTITUTO",,034720W,37.77638888888889,-35.2,
598,374639N,JAEN,580,5270B,JAÉN,08417,034833W,37.777499999999996,-35.384166666666665,
599,384008N,CIUDAD REAL,665,5304Y,PUERTOLLANO,,040333W,38.66888888888889,-40.55083333333333,
600,380535N,JAEN,345,5281X,BAILÉN,,034657W,38.09305555555556,-35.08527777777778,
601,380123N,JAEN,202,5298X,ANDÚJAR,08347,040348W,38.02305555555555,-40.56888888888889,
602,382544N,CIUDAD REAL,710,5341C,FUENCALIENTE,,041806W,38.428888888888885,-42.335,
603,381959N,CORDOBA,750,5390Y,VILLANUEVA DE CÓRDOBA,08346,043632W,38.33305555555556,-44.050555555555555,
604,381112N,CORDOBA,720,5346X,CARDEÑA,,041621W,38.18666666666666,-42.03361111111111,
605,380048N,CORDOBA,155,5361X,MONTORO,,041949W,38.013333333333335,-42.56916666666667,
606,380115N,CORDOBA,525,5394X,"CÓRDOBA, EMBALSE DE GUADANUÑO",,044748W,38.020833333333336,-45.23555555555556,
607,372951N,JAEN,908,5406X,ALCALÁ LA REAL,,035429W,37.4975,-35.7025,
608,373322N,CORDOBA,650,5427X,DOÑA MENCÍA,08412,042114W,37.55611111111111,-42.18444444444444,
609,372905N,CORDOBA,550,5412X,PRIEGO DE CÓRDOBA,,041228W,37.484722222222224,-41.36888888888889,
610,375056N,CORDOBA,90,5402,CÓRDOBA AEROPUERTO,08410,045048W,37.848888888888894,-45.06888888888889,
611,381604N,BADAJOZ,581,5473X,AZUAGA,,054110W,38.26777777777777,-54.18333333333333,
612,370352N,GRANADA,3092,5511,"PRADOLLANO, PARQUE NACIONAL SIERRA NEVADA",,032217W,37.06444444444444,-32.35194444444445,
613,374511N,CORDOBA,120,5470,FUENTE PALMERA,,050602W,37.753055555555555,-51.00055555555556,
614,374837N,CORDOBA,275,5429X,"CÓRDOBA, PRÁGDENA",,042744W,37.81027777777778,-43.23444444444444,
615,380640N,CORDOBA,465,5459X,ESPIEL,,045543W,38.111111111111114,-45.90083333333333,
616,371123N,GRANADA,775,5515X,GRANADA-CARTUJA,,033544W,37.189722222222215,-33.901111111111106,
617,370814N,GRANADA,687,5514,GRANADA BASE AÉREA,08420,033753W,37.13722222222222,-34.25083333333333,
618,370347N,GRANADA,2856,5516D,SIERRA NEVADA 'RADIOTELESCOPIO',08980,032313W,37.06305555555555,-32.5175,
619,370810N,GRANADA,695,5514Z,GRANADA BASE AÉREA,08420,033800W,37.13611111111111,-34.333333333333336,
620,371413N,GRANADA,1258,5515D,VÍZNAR,08421,033302W,37.23694444444445,-33.50055555555556,
621,371125N,GRANADA,560,5530E,GRANADA AEROPUERTO,08419,034723W,37.19027777777777,-35.200833333333335,
622,370940N,GRANADA,760,5582A,LOJA,08414,040910W,37.16111111111111,-41.516666666666666,
623,371351N,CORDOBA,465,5598X,BENAMEJÍ,,043252W,37.23083333333334,-43.41722222222222,
624,371140N,SEVILLA,410,5612B,LA RODA DE ANDALUCÍA,08399,044612W,37.19444444444444,-45.01722222222222,
625,371613N,SEVILLA,450,5612X,LORA DE ESTEPA,,044937W,37.27027777777778,-45.551944444444445,
626,372855N,CORDOBA,309,5624X,AGUILAR DE LA FRONTERA,,044109W,37.481944444444444,-44.16916666666666,
627,374712N,SEVILLA,200,5654X,LA PUEBLA DE LOS INFANTES,,052216W,37.78666666666666,-52.35166666666667,
628,373819N,CORDOBA,200,5625X,LA RAMBLA,,044550W,37.63861111111111,-44.916666666666664,
629,373058N,SEVILLA,130,5641X,ÉCIJA,08395,050506W,37.51611111111111,-50.835,
630,372950N,SEVILLA,165,5656,FUENTES DE ANDALUCÍA,,052559W,37.49722222222222,-52.91916666666666,
631,373356N,SEVILLA,50,5702X,CARMONA,,054426W,37.565555555555555,-54.70166666666667,
632,375535N,SEVILLA,550,5704B,CAZALLA DE LA SIERRA,08392,054611W,37.92638888888889,-55.01694444444444,
633,380558N,SEVILLA,720,5726X,GUADALCANAL,,054909W,38.099444444444444,-55.5025,
634,372500N,SEVILLA,34,5783,SEVILLA AEROPUERTO,08391,055245W,37.416666666666664,-55.40138888888889,
635,374728N,SEVILLA,450,5733X,ALMADÉN DE LA PLATA,,060430W,37.79111111111111,-60.71666666666667,
636,375825N,HUELVA,618,5769X,CALA,,061920W,37.97361111111111,-62.53333333333333,
637,370952N,SEVILLA,87,5796,MORÓN DE LA FRONTERA,08397,053641W,37.16444444444444,-54.066944444444445,
638,372151N,SEVILLA,9,5790Y,"SEVILLA, TABLADA",,060021W,37.36416666666667,-60.03361111111111,
639,372142N,SEVILLA,84,5788X,"TOMARES, ZAUDÍN",,060335W,37.361666666666665,-60.55138888888889,
640,370553N,HUELVA,41,5860E,"MOGUER, EL ARENOSILLO",08384,064417W,37.09805555555556,-64.68527777777778,
641,365919N,HUELVA,5,5858X,ALMONTE,,062635W,36.98861111111111,-63.05138888888889,
642,365712N,SEVILLA,105,5891X,LAS CABEZAS DE SAN JUAN,,055048W,36.95333333333333,-55.06888888888889,
643,372136N,SEVILLA,76,5835X,CARRIÓN DE LOS CÉSPEDES,,062003W,37.36,-62.00083333333333,
644,364538N,CADIZ,913,5911A,GRAZALEMA,08455,052227W,36.760555555555555,-52.368611111111115,
645,364500N,CADIZ,10,5906X,CHIPIONA,,062402W,36.75,-62.66722222222222,
646,363820N,CADIZ,21,5910,"ROTA, BASE NAVAL",08449,061957W,36.638888888888886,-62.58527777777778,
647,364346N,CADIZ,295,5941X,EL BOSQUE,,053044W,36.72944444444445,-53.06777777777778,
648,365554N,CADIZ,530,5919X,OLVERA,,051534W,36.931666666666665,-51.88444444444444,
649,362959N,CADIZ,2,5973,CÁDIZ,08452,061528W,36.499722222222225,-61.86888888888889,
650,364502N,CADIZ,27,5960,JEREZ DE LA FRONTERA AEROPUERTO,08451,060321W,36.75055555555556,-60.53361111111111,
651,363950N,CADIZ,105,5950X,SAN JOSÉ DEL VALLE,,054660W,36.663888888888884,-55.1,
652,362756N,CADIZ,28,5972X,SAN FERNANDO,08453,061220W,36.46555555555556,-61.36666666666667,
653,361105N,CADIZ,4,5996B,BARBATE,,055434W,36.18472222222222,-55.717777777777776,
654,371436N,SEVILLA,255,5998X,OSUNA,,050645W,37.24333333333333,-51.06805555555556,
655,361444N,CADIZ,186,5995B,VEJER DE LA FRONTERA,08457,055754W,36.245555555555555,-56.25111111111111,
656,362422N,CADIZ,70,5983X,MEDINA SIDONIA,,055513W,36.40611111111111,-55.850833333333334,
657,364460N,MALAGA,760,6032X,RONDA INSTITUTO,,051007W,36.75,-51.00194444444445,
658,364459N,MALAGA,766,6032B,RONDA,08443,051006W,36.749722222222225,-51.001666666666665,
659,360050N,CADIZ,32,6001,TARIFA,08458,053556W,36.013888888888886,-53.91833333333333,
660,351635N,MELILLA,52,6000A,MELILLA,60338,025723W,35.27638888888889,-26.200833333333332,
661,363240N,MALAGA,315,6040X,CORTES DE LA FRONTERA,,052311W,36.544444444444444,-52.51694444444444,
662,363107N,MALAGA,594,6050X,GAUCÍN,,051907W,36.51861111111111,-52.50194444444445,
663,363757N,MALAGA,676,6045X,ALPANDEIRE,,051211W,36.6325,-51.35027777777778,
664,362608N,CADIZ,42,6042I,JIMENA DE LA FRONTERA,,052342W,36.43555555555555,-52.56722222222223,
665,362904N,MALAGA,2,6076X,"MARBELLA, PUERTO",,045711W,36.48444444444444,-46.183611111111105,
666,362242N,MALAGA,140,6057X,MANILVA,,051536W,36.37833333333333,-51.885,
667,363237N,MALAGA,392,6069X,BENAHAVÍS,,050129W,36.54361111111111,-50.2025,
668,361623N,CADIZ,1,6056X,SAN ROQUE  ,,051704W,36.27305555555555,-52.16777777777777,
669,362501N,MALAGA,19,6058I,ESTEPONA,08463,050918W,36.41694444444444,-51.51888888888889,
670,363714N,MALAGA,85,6088X,TORREMOLINOS,,043054W,36.620555555555555,-43.08444444444444,
671,363219N,MALAGA,8,6084X,FUENGIROLA,08480,043706W,36.53861111111111,-44.16833333333333,
672,362860N,MALAGA,2,6083X,MARBELLA,,044425W,36.483333333333334,-44.70138888888889,
673,370126N,MALAGA,515,6100B,ANTEQUERA AYUNTAMIENTO (AUTOMÁTICA THIES),,043345W,37.02388888888889,-43.56805555555556,
674,370146N,MALAGA,408,6106X,ANTEQUERA,08413,044454W,37.029444444444444,-44.75111111111111,
675,363958N,MALAGA,7,6155A,MÁLAGA AEROPUERTO,08482,042856W,36.66611111111111,-43.41833333333333,
676,365117N,MALAGA,172,6127X,ÁLORA,,044148W,36.85472222222222,-44.23555555555556,
677,363928N,MALAGA,230,6143X,COÍN,,044539W,36.657777777777774,-44.88583333333333,
678,364304N,MALAGA,54,6156X,"MÁLAGA, CENTRO METEOROLÓGICO",08481,042854W,36.717777777777776,-43.41777777777777,
679,364254N,MALAGA,7,6175X,RINCÓN DE LA VICTORIA,,041710W,36.715,-42.18333333333333,
680,364260N,MALAGA,25,6172O,"MÁLAGA, PUERTO",08479,042511W,36.71666666666667,-42.85027777777778,
681,364260N,MALAGA,25,6172X,MÁLAGA,,042511W,36.71666666666667,-42.85027777777778,
682,364521N,MALAGA,35,6201X,ALGARROBO,,040238W,36.755833333333335,-40.385555555555555,
683,364335N,MALAGA,3,6205X,TORROX,08484,035726W,36.72638888888889,-36.20166666666667,
684,364546N,MALAGA,169,6213X,NERJA,,035043W,36.76277777777778,-35.0675,
685,364607N,MALAGA,41,6199X,VÉLEZ-MÁLAGA,,040537W,36.76861111111111,-40.88527777777778,
686,364322N,GRANADA,12,6268X,MOTRIL,08485,033149W,36.72277777777778,-33.23583333333333,
687,365523N,GRANADA,708,6258X,LANJARÓN,,032933W,36.92305555555555,-33.55083333333333,
688,364454N,GRANADA,20,6267X,SALOBREÑA,,033443W,36.748333333333335,-33.73416666666667,
689,365708N,GRANADA,1732,6248D,"CAÑAR, PARQUE NACIONAL SIERRA NEVADA",,032549W,36.952222222222225,-32.902499999999996,
690,370019N,GRANADA,1020,6281X,VÁLOR,,030417W,37.00527777777778,-30.685277777777777,
691,364629N,ALMERIA,98,6291B,EL EJIDO,,024847W,36.77472222222222,-25.401944444444442,
692,364403N,GRANADA,235,6272X,CASTELL DE FERRO,,032248W,36.73416666666667,-32.40222222222222,
693,364450N,ALMERIA,8,6277B,ADRA,08486,030114W,36.74722222222222,-30.184444444444445,
694,364326N,GRANADA,3,6268Y,"MOTRIL, PUERTO",,033145W,36.723888888888894,-33.234722222222224,
695,370545N,GRANADA,2300,6299I,"LAGUNA SECA, PARQUE NACIONAL SIERRA NEVADA",,025752W,37.09583333333334,-26.250555555555554,
696,364952N,ALMERIA,7,6297,ALMERÍA,,022720W,36.83111111111111,-23.2,
697,364113N,ALMERIA,3,6293X,ROQUETAS DE MAR,08492,024206W,36.68694444444444,-24.334999999999997,
698,370311N,ALMERIA,1713,6307C,"LAÚJAR, PARQUE NACIONAL SIERRA NEVADA",,025350W,37.05305555555555,-25.583333333333332,
699,370829N,ALMERIA,869,6302A,ABLA,08427,024648W,37.14138888888889,-25.06888888888889,
700,370160N,ALMERIA,1510,6307X,LÁUJAR DE ANDARAX,,025445W,37.03333333333333,-25.734722222222224,
701,364319N,ALMERIA,42,6329X,CABO DE GATA,,021135W,36.721944444444446,-21.218055555555555,
702,370115N,ALMERIA,601,6312E,"RÁGOL, PARQUE NACIONAL SIERRA NEVADA",,024038W,37.020833333333336,-24.052222222222223,
703,365849N,ALMERIA,16,6332X,CARBONERAS,08488,015413W,36.98027777777778,-15.684166666666666,
704,365047N,ALMERIA,21,6325O,ALMERÍA AEROPUERTO,08487,022125W,36.84638888888889,-22.20138888888889,
705,365632N,ALMERIA,222,6332Y,CARBONERAS,08488,015425W,36.94222222222222,-15.701388888888888,
706,370636N,ALMERIA,970,6335O,"NACIMIENTO, PARQUE NACIONAL SIERRA NEVADA",,024157W,37.11,-24.251944444444444,
707,371009N,ALMERIA,28,6340X,GARRUCHA,,014943W,37.16916666666666,-15.567499999999999,
708,372424N,ALMERIA,508,6364X,ALBOX,,020905W,37.406666666666666,-21.50138888888889,
709,355618N,ALMERIA,15,6381,ALBORÁN,08490,030210W,35.93833333333333,-30.35,
710,372326N,ALMERIA,300,6367B,HUÉRCAL-OVERA,08428,015637W,37.39055555555556,-16.051944444444445,
711,372502N,MURCIA,32,7002Y,ÁGUILAS,08432,013513W,37.41722222222222,-13.850833333333332,
712,370756N,MALAGA,420,6375X,FUENTE DE PIEDRA,,044431W,37.132222222222225,-44.716944444444444,
713,373809N,MURCIA,3,7019X,CARTAGENA/SALINAS CABO PALOS,,004256W,37.63583333333333,-4.418333333333334,
714,373604N,MURCIA,17,7012C,CARTAGENA,08434,005916W,37.60111111111111,-6.5183333333333335,
715,373616N,MURCIA,56,7012D,CARTAGENA,08434,010124W,37.60444444444445,-10.20111111111111,
716,373517N,MURCIA,66,7007Y,MAZARRÓN,,011350W,37.588055555555556,-11.583333333333334,
717,374827N,MURCIA,205,7020C,MURCIA AEROPUERTO,,010741W,37.8075,-11.233611111111111,
718,374642N,MURCIA,4,7031X,SAN JAVIER AEROPUERTO,08433,004821W,37.77833333333333,-5.366944444444445,
719,374335N,MURCIA,140,7023X,FUENTE ÁLAMO DE MURCIA,,011002W,37.72638888888889,-11.000555555555556,
720,374720N,MURCIA,4,7031,SAN JAVIER AEROPUERTO,08433,004812W,37.788888888888884,-5.350555555555555,
721,382336N,ALBACETE,680,7066Y,"YESTE, EMBALSE FUENSANTA",,021308W,38.39333333333333,-21.502222222222223,
722,374420N,MURCIA,50,7026X,TORRE-PACHECO,,005803W,37.73888888888889,-6.3341666666666665,
723,381606N,MURCIA,955,7080X,MORATALLA,,015911W,38.26833333333333,-16.516944444444444,
724,381742N,ALBACETE,960,7072Y,YESTE,,021738W,38.294999999999995,-22.218888888888888,
725,380518N,ALBACETE,1485,7067Y,NERPIO,,022447W,38.08833333333334,-22.735277777777778,
726,383231N,ALBACETE,605,7096B,HELLÍN,08355,014211W,38.54194444444444,-14.350277777777777,
727,380257N,MURCIA,690,7127X,BULLAS,,014143W,38.049166666666665,-14.234166666666665,
728,383517N,ALBACETE,615,7103Y,TOBARRA,,014122W,38.588055555555556,-14.200555555555555,
729,380611N,MURCIA,643,7119B,CARAVACA DE LA CRUZ,08365,015238W,38.10305555555556,-15.385555555555555,
730,382732N,MURCIA,485,7138B,JUMILLA,,012007W,38.45888888888889,-12.001944444444444,
731,381403N,MURCIA,350,7121A,CALASPARRA,,014208W,38.23416666666667,-14.335555555555556,
732,381358N,MURCIA,265,7145D,CIEZA,08363,012250W,38.23277777777778,-12.416666666666666,
733,375534N,MURCIA,985,7195X,"CARAVACA DE LA CRUZ, LOS ROYOS",,020330W,37.92611111111111,-20.55,
734,380229N,MURCIA,255,7172X,MULA,,012657W,38.04138888888889,-13.085277777777778,
735,380741N,MURCIA,150,7158X,ARCHENA,,011821W,38.128055555555555,-12.366944444444444,
736,380007N,MURCIA,62,7178I,MURCIA,08430,011015W,38.00194444444445,-11.018055555555556,
737,375041N,MURCIA,646,7203A,"LORCA, ZARCILLA DE RAMOS",,015211W,37.844722222222224,-15.350277777777777,
738,373917N,MURCIA,312,7209,LORCA,08426,014114W,37.65472222222222,-14.184444444444445,
739,373405N,MURCIA,445,7211B,PUERTO LUMBRERAS,,014750W,37.56805555555556,-15.25,
740,374531N,MURCIA,281,7218Y,TOTANA,,013046W,37.75861111111111,-13.068333333333333,
741,375728N,MURCIA,75,7228,"ALCANTARILLA, BASE AÉREA",08429,011343W,37.95777777777778,-11.567499999999999,
742,380404N,ALICANTE,26,7244X,ORIHUELA,,005853W,38.06777777777778,-6.4175,
743,380820N,MURCIA,170,7237E,MOLINA DE SEGURA,,010931W,38.138888888888886,-11.550277777777778,
744,375142N,MURCIA,157,7227X,ALHAMA DE MURCIA,,012005W,37.861666666666665,-12.001388888888888,
745,382359N,ALICANTE,575,7247X,EL PINÓS/PINOSO,08357,010217W,38.39972222222222,-10.351944444444444,
746,381140N,MURCIA,174,7250C,ABANILLA,,010202W,38.19444444444444,-10.33388888888889,
747,380517N,ALICANTE,31,7261X,ROJALES,08367,004255W,38.088055555555556,-4.418055555555556,
748,383606N,MURCIA,640,7275C,YECLA,08356,010935W,38.60166666666667,-11.551388888888889,
749,382308N,ALICANTE,233,8013X,NOVELDA,,004528W,38.385555555555555,-4.86888888888889,
750,381715N,ALICANTE,110,8018X,ELX/ELCHE,,004050W,38.2875,-4.083333333333333,
751,381658N,ALICANTE,43,8019,ALICANTE-ELCHE AEROPUERTO,08360,003415W,38.282777777777774,-3.6847222222222227,
752,383437N,ALICANTE,486,8008Y,VILLENA,,005156W,38.57694444444445,-5.251666666666667,
753,384648N,VALENCIA,622,8005X,FONTANARS DELS ALFORINS,,004745W,38.78,-5.2347222222222225,
754,382221N,ALICANTE,81,8025,ALACANT/ALICANTE,08359,002939W,38.3725,-3.5524999999999998,
755,383237N,ALICANTE,36,8036Y,BENIDORM,,000816W,38.54361111111111,-1.3516666666666668,
756,385048N,ALICANTE,60,8057C,PEGO,,000706W,38.84666666666667,-1.1683333333333334,
757,384703N,ALICANTE,15,8050X,JÁVEA/ XÀBIA,08370,001000E,38.784166666666664,1.0,
758,390101N,VALENCIA,340,8072Y,BARX,,001817W,39.01694444444444,-2.3519444444444444,
759,385544N,VALENCIA,5,8058X,OLIVA,08282,000545W,38.928888888888885,-0.9013888888888889,46810
760,384239N,ALICANTE,530,8059C,ALCOI/ALCOY,,002736W,38.71083333333333,-3.2183333333333333,
761,401321N,CUENCA,1154,8084Y,PANTANO DE LA TOBA (AUTOMATICA),,015533W,40.222500000000004,-15.884166666666665,
762,385701N,VALENCIA,12,8058Y,MIRAMAR,,000816W,38.95027777777778,-1.3516666666666668,
763,385715N,ALBACETE,702,8175,ALBACETE BASE AÉREA,08280,015123W,38.95416666666667,-15.200833333333332,
764,393319N,CUENCA,830,8155Y,MOTILLA DEL PALANCAR,,015455W,39.555277777777775,-15.751388888888888,
765,385615N,ALBACETE,880,8177A,CHINCHILLA,08278,013932W,38.9375,-14.550555555555556,
766,400402N,CUENCA,949,8096,CUENCA,08231,020755W,40.06722222222223,-21.25138888888889,
767,390020N,ALBACETE,674,8178D,ALBACETE,08279,015144W,39.00555555555555,-15.234444444444444,
768,391230N,VALENCIA,372,8193E,JALANCE,,010540W,39.208333333333336,-10.9,
769,394252N,CUENCA,815,8245Y,MIRA,,012633W,39.714444444444446,-13.050833333333333,
770,400611N,CUENCA,1160,8210Y,SALVACAÑETE,,013013W,40.10305555555556,-13.0175,
771,390458N,VALENCIA,855,8203O,ZARRA,08283,010603W,39.08277777777778,-11.000833333333333,
772,385102N,ALBACETE,710,8198Y,ALMANSA,,010347W,38.85055555555556,-10.56861111111111,
773,384946N,VALENCIA,350,8283X,ONTINYENT,,003628W,38.82944444444445,-4.035555555555556,
774,390801N,VALENCIA,305,8270X,BICORP,,004724W,39.13361111111111,-5.2011111111111115,
775,390006N,VALENCIA,88,8293X,XÀTIVA,08290,003123W,39.001666666666665,-3.2008333333333336,
776,391105N,VALENCIA,12,8325X,POLINYÀ DE XÚQUER,08287,002219W,39.18472222222222,-2.3525,
777,392332N,VALENCIA,186,8337X,TURÍS,,003729W,39.39222222222222,-4.202500000000001,
778,393432N,VALENCIA,758,8309X,UTIEL,08281,011441W,39.57555555555556,-11.73361111111111,
779,390648N,VALENCIA,25,8300X,CARCAIXENT,,002645W,39.11333333333334,-3.0680555555555555,
780,402103N,TERUEL,902,8368U,TERUEL,08235,010727W,40.350833333333334,-11.201944444444443,
781,400338N,VALENCIA,705,8381X,ADEMUZ,,011701W,40.06055555555555,-12.166944444444443,
782,401410N,TERUEL,1430,8376,JABALOYAS,,012442W,40.236111111111114,-12.733888888888888,
783,402511N,TERUEL,1130,8354X,ALBARRACÍN,,012629W,40.41972222222222,-13.035833333333333,
784,393950N,VALENCIA,198,8409X,LLÍRIA,,003914W,39.663888888888884,-4.517777777777778,
785,392906N,VALENCIA,56,8414A,VALENCIA AEROPUERTO,08284,002829W,39.485,-3.3691666666666666,
786,392850N,VALENCIA,11,8416,VALÈNCIA,08285,002159W,39.480555555555554,-2.2525,
787,392846N,VALENCIA,6,8416X,"VALENCIA, UPV",,002014W,39.47944444444445,-2.017777777777778,
788,394512N,VALENCIA,515,8395X,CHELVA,,005937W,39.75333333333333,-6.551944444444445,
789,402550N,TERUEL,1380,8458X,CEDRILLAS,,005058W,40.43055555555555,-5.085555555555556,
790,392850N,VALENCIA,11,8416Y,"VALÈNCIA, VIVEROS",08285,002159W,39.480555555555554,-2.2525,
791,400516N,CASTELLON,601,8472A,MONTANEJOS,,003249W,40.08777777777778,-3.4025,28380
792,394744N,CASTELLON,400,8439X,SEGORBE,,002907W,39.79555555555555,-3.5019444444444443,
793,394203N,VALENCIA,24,8446Y,SAGUNT/SAGUNTO,,001532W,39.700833333333335,-1.883888888888889,
794,395921N,CASTELLON,23,8501,CASTELLÓ DE LA PLANA,,000156W,39.98916666666667,-0.25166666666666665,12200
795,395726N,CASTELLON,43,8500A,CASTELLÓ - ALMASSORA,08286,000419W,39.95722222222223,-0.6858333333333333,12431
796,402145N,TERUEL,1515,8486X,MOSQUERUELA,,002716W,40.362500000000004,-3.185,
797,401338N,CASTELLON,420,8492X,ATZENETA DEL MAESTRAT,,001011W,40.227222222222224,-1.0169444444444444,
798,402600N,CASTELLON,1130,8489X,VILLAFRANCA DEL CID/VILAFRANCA,08241,001520W,40.43333333333333,-1.8666666666666667,16150
799,404137N,CASTELLON,1165,8520X,LA POBLA DE BENIFASSÀ-FREDES,,000955E,40.69361111111111,1.5847222222222221,
800,403315N,CASTELLON,111,8523X,VINARÒS,08239,002547E,40.55416666666667,2.901944444444444,
801,425931N,CANTABRIA,870,9001D,REINOSA,08032,040938W,42.99194444444444,-41.55222222222222,
802,401241N,CASTELLON,35,8503Y,TORREBLANCA,,001101E,40.21138888888889,1.1669444444444446,
803,424822N,CANTABRIA,720,9019B,"VALDERREDIBLE, POLIENTES   ",08033,035602W,42.80611111111111,-36.00055555555556,
804,425705N,BURGOS,915,9012E,SANTA GADEA DE ALFOZ,,035726W,42.95138888888889,-36.20166666666667,
805,424835N,CANTABRIA,770,9016X,"VALDERREDIBLE, CUBILLO DE EBRO",,040156W,42.80972222222222,-40.251666666666665,
806,430212N,CANTABRIA,1650,9001S,ALTO CAMPOO,08061,042228W,43.03666666666666,-42.36888888888889,
807,423334N,BURGOS,730,9031C,BRIVIESCA,,031832W,42.559444444444445,-32.38388888888889,
808,425231N,ARABA/ALAVA,910,9060X,LALASTRA,,031354W,42.875277777777775,-31.584444444444443,
809,424449N,BURGOS,1017,9027X,SARGENTES DE LA LORA,,035304W,42.746944444444445,-35.50111111111111,
810,425512N,BURGOS,580,9051,MEDINA DE POMAR,08063,032858W,42.919999999999995,-33.41888888888889,
811,424114N,BURGOS,460,9069C,MIRANDA DE EBRO,,025738W,42.68722222222222,-26.218888888888888,
812,424947N,ARABA/ALAVA,660,9073X,"AGURAIN/SALVATIERRA, OPAKUA",,022135W,42.82972222222222,-22.218055555555555,
813,425255N,ARABA/ALAVA,513,9091O,FORONDA-TXOKIZA,08080,024406W,42.88194444444444,-24.668333333333333,
814,425059N,ARABA/ALAVA,521,9087,VITORIA AERÓDROMO,,023922W,42.849722222222226,-24.53388888888889,
815,423431N,LA RIOJA,465,9121X,HARO,,025117W,42.57527777777778,-25.185277777777777,
816,422516N,BURGOS,820,9111,BELORADO,08077,031013W,42.42111111111111,-31.0175,
817,425219N,ARABA/ALAVA,513,9091R,VITORIA-GASTEIZ AEROPUERTO,08080,024358W,42.871944444444445,-24.585555555555555,
818,421518N,LA RIOJA,1630,9115X,VALDEZCARAY,,025805W,42.255,-26.334722222222222,
819,422450N,LA RIOJA,500,9141V,NÁJERA,,024336W,42.413888888888884,-24.551666666666666,
820,421351N,LA RIOJA,1006,9136X,"ANGUIANO, VALVANERA",,025216W,42.23083333333334,-25.351666666666667,
821,423614N,ARABA/ALAVA,612,9122I,LABASTIDA,,024636W,42.60388888888889,-25.051666666666666,
822,423402N,ARABA/ALAVA,575,9145X,LEZA,,023758W,42.56722222222223,-24.252222222222223,
823,422858N,LA RIOJA,429,9145Y,CENICERO,,023822W,42.48277777777778,-24.36722222222222,
824,423413N,NAVARRA,470,9171K,LOS ARCOS,,021102W,42.57027777777778,-21.16722222222222,
825,422708N,LA RIOJA,353,9170,"LOGROÑO, AEROPUERTO",08084,021952W,42.452222222222225,-22.583888888888886,
826,424735N,HUESCA,2276,9195C,ASTÚN- LA RACA,08909,003019W,42.793055555555554,-3.0191666666666666,
827,420858N,LA RIOJA,855,9188,ENCISO,,021624W,42.14944444444444,-22.034444444444446,
828,424458N,HUESCA,1197,9198X,CANFRANC,,003058W,42.74944444444444,-3.0855555555555556,
829,424014N,ARABA/ALAVA,570,9178X,CAMPEZO/KANPEZU,,022046W,42.67055555555555,-22.06833333333333,
830,423444N,HUESCA,823,9201K,JACA,08091,003249W,42.57888888888889,-3.4025,
831,423447N,HUESCA,832,9201X,JACA,08091,003242W,42.57972222222222,-3.4005555555555556,
832,423051N,HUESCA,722,9211F,"BAILO, PUYALTO",,004902W,42.51416666666667,-5.500555555555556,
833,424426N,HUESCA,860,9207,"VALLE DE HECHO, HECHO",,004502W,42.74055555555556,-4.833888888888889,
834,424231N,HUESCA,1025,9208E,ARAGÜÉS DEL PUERTO,08095,004022W,42.70861111111111,-4.033888888888889,
835,424303N,NAVARRA,612,9238X,NAVASCUÉS/NABASKOZE,,010702W,42.7175,-11.167222222222222,
836,425145N,NAVARRA,838,9218A,ISABA/IZABA,,005529W,42.862500000000004,-5.8691666666666675,
837,430028N,NAVARRA,947,9228T,RONCESVALLES/ORREAGA,,011932W,43.007777777777775,-12.550555555555556,
838,425346N,NAVARRA,635,9228J,OROZ-BETELU/OROTZ-BETELU,,011801W,42.89611111111111,-12.33361111111111,
839,422921N,NAVARRA,390,9252X,OLITE/ERRIBERRI,,013920W,42.48916666666667,-14.533333333333333,
840,425814N,NAVARRA,615,9257X,"ESTERIBAR, EMBALSE DE EUGI",,013101W,42.970555555555556,-13.166944444444443,
841,423117N,NAVARRA,440,9245X,CÁSEDA,,012159W,42.521388888888886,-12.2525,
842,422927N,ZARAGOZA,626,9244X,SOS DEL REY CATÓLICO,08090,011248W,42.490833333333335,-11.402222222222223,
843,425508N,NAVARRA,432,9274X,IRURTZUN,,015006W,42.91888888888889,-15.001666666666667,
844,424904N,NAVARRA,450,9262,PAMPLONA,,013818W,42.81777777777778,-14.352222222222222,
845,424204N,NAVARRA,585,9262P,MONREAL/ELO,,012944W,42.70111111111111,-13.567777777777778,
846,424637N,NAVARRA,459,9263D,"PAMPLONA, AEROPUERTO",08085,013900W,42.776944444444446,-14.5,
847,424634N,NAVARRA,572,9263X,"ARANGUREN, ILUNDAIN  ",08089,013157W,42.77611111111111,-13.251944444444444,
848,421034N,LA RIOJA,371,9293X,"ALFARO, LA PLANA",,014438W,42.17611111111111,-14.71888888888889,
849,421155N,NAVARRA,295,9294E,"BARDENAS REALES, BASE AÉREA",08087,012831W,42.198611111111106,-13.38361111111111,
850,423258N,NAVARRA,375,9280B,LARRAGA,,015127W,42.54944444444444,-15.201944444444443,
851,420135N,SORIA,1096,9287A,SAN PEDRO MANRIQUE,,021351W,42.02638888888889,-21.58361111111111,
852,421225N,NAVARRA,268,9283X,CADREITA,08153,014241W,42.206944444444446,-14.400277777777777,
853,415903N,ZARAGOZA,543,9336D,CASTEJON DE VALDEJASA,,005945W,41.98416666666667,-6.5680555555555555,
854,420320N,NAVARRA,297,9302Y,TUDELA,,013634W,42.05555555555555,-14.051111111111112,
855,415732N,NAVARRA,410,9301X,MONTEAGUDO,,014126W,41.95888888888889,-14.201666666666666,
856,420716N,ZARAGOZA,321,9321X,EJEA DE LOS CABALLEROS,,010823W,42.12111111111111,-11.3675,
857,415454N,ZARAGOZA,475,9299X,TARAZONA,,014324W,41.915,-14.534444444444444,
858,411735N,ZARAGOZA,703,9354X,ALHAMA DE ARAGON,,015343W,41.293055555555554,-15.567499999999999,
859,413429N,SORIA,1000,9352A,ALMAZUL,,020825W,41.57472222222223,-21.368055555555557,
860,411259N,SORIA,863,9344C,ARCOS DE JALÓN,,021735W,41.21638888888889,-22.218055555555555,
861,403400N,TERUEL,1000,9374X,SANTA EULALIA DEL CAMPO,,011915W,40.56666666666667,-12.518055555555554,
862,405154N,TERUEL,932,9381,"CALAMOCHA, AERÓDROMO",,011818W,40.865,-12.352222222222222,
863,404643N,GUADALAJARA,1185,9377Y,EL PEDREGAL,,013406W,40.77861111111111,-13.668333333333333,
864,405534N,TERUEL,884,9381I,CALAMOCHA,08233,011736W,40.92611111111111,-12.218333333333334,
865,412852N,ZARAGOZA,370,9427X,LA ALMUNIA DE DOÑA GODINA,,012251W,41.48111111111111,-12.416944444444443,
866,410652N,ZARAGOZA,774,9390,DAROCA,08157,012436W,41.114444444444445,-12.718333333333334,
867,411952N,ZARAGOZA,582,9394X,CALATAYUD,08156,013843W,41.33111111111111,-14.400833333333333,
868,413938N,ZARAGOZA,249,9434,"ZARAGOZA, AEROPUERTO",08160,010015W,41.660555555555554,-10.018055555555556,
869,405943N,TERUEL,1255,9436X,FONFRÍA,,010515W,40.99527777777778,-10.851388888888888,
870,413716N,ZARAGOZA,258,9434P,"ZARAGOZA, VALDESPARTERA",08159,005605W,41.62111111111111,-6.001388888888889,
871,424545N,HUESCA,1800,9445L,"FORMIGAL, SARRIOS",08096,002334W,42.7625,-2.551111111111111,
872,424157N,HUESCA,1100,9453X,"BIESCAS, EMBALSE DE BÚBAL",,001908W,42.69916666666666,-2.502222222222222,
873,424216N,HUESCA,1850,9451F,"PANTICOSA, PETROSOS",08915,001631W,42.70444444444445,-2.0502777777777776,
874,420146N,HUESCA,390,9491X,ALMUDÉVAR,,003509W,42.029444444444444,-3.8358333333333334,
875,412635N,ZARAGOZA,535,9501X,VALMADRID ,,005309W,41.44305555555555,-5.5025,
876,414748N,ZARAGOZA,405,9495Y,LECIÑENA,,003702W,41.79666666666667,-4.167222222222223,
877,412545N,ZARAGOZA,205,9510X,QUINTO,,003014W,41.42916666666667,-3.017777777777778,
878,423046N,HUESCA,775,9460X,SABIÑÁNIGO,,002120W,42.51277777777778,-2.2,
879,410152N,TERUEL,800,9513X,MUNIESA,,004820W,41.03111111111111,-5.366666666666667,
880,404943N,TERUEL,895,9531Y,MONTALBÁN,,004734W,40.828611111111115,-5.217777777777778,
881,411019N,TERUEL,305,9546B,HIJAR,,002631W,41.17194444444444,-3.0502777777777776,
882,405828N,TERUEL,762,9550C,"ANDORRA, HORCALLANA",,002428W,40.974444444444444,-2.7022222222222223,
883,405648N,TERUEL,466,9569A,CALANDA,08166,001416W,40.946666666666665,-1.685,
884,410329N,TERUEL,334,9573X,ALCAÑIZ,08164,000830W,41.058055555555555,-1.3833333333333333,
885,402955N,CASTELLON,1220,9563X,CASTELLFORT,08237,001112W,40.49861111111111,-1.183888888888889,
886,404754N,TERUEL,755,9561X,CASTELLOTE,,001855W,40.79833333333333,-2.418055555555556,
887,403718N,CASTELLON,990,9562X,MORELLA,,000607W,40.62166666666667,-1.0019444444444445,44163
888,421957N,GIRONA,1699,9585,LA MOLINA,08117,015622E,42.3325,16.03388888888889,
889,413119N,ZARAGOZA,357,9576C,BUJARALOZ,08165,001027W,41.52194444444444,-1.035277777777778,50441
890,422144N,LLEIDA,1038,9590,MARTINET  ,,014136E,42.36222222222222,14.218333333333334,
891,411433N,ZARAGOZA,215,9574B,"CASPE, PLANA DEL PILÓN",08165,000407W,41.2425,-0.668611111111111,50131
892,421349N,LLEIDA,1196,9632X,TUIXENT,,013410E,42.23027777777778,13.683333333333334,
893,422549N,LLEIDA,1940,9590D,CAP DE REC,08940,014003E,42.430277777777775,14.000833333333333,
894,422117N,LLEIDA,677,9619,LA SEU D'URGELL,08115,012746E,42.35472222222222,13.235000000000001,
895,420916N,LLEIDA,609,9638D,COLL DE NARGÓ,,011843E,42.154444444444444,12.400833333333333,
896,423730N,LLEIDA,952,9657X,ESTERRI D'ÀNEU,,010734E,42.625,11.217777777777778,
897,414821N,LLEIDA,435,9647X,TORÀ,,012344E,41.80583333333333,12.567777777777778,
898,415253N,LLEIDA,400,9650X,ARTESA DE SEGRE,,010631E,41.88138888888889,11.050277777777778,
899,423451N,LLEIDA,1907,9660,SANT MAURICI (LLAC),,010027E,42.58083333333334,10.035277777777777,
900,422436N,LLEIDA,2410,9677,PORT AINÉ,08938,011253E,42.41,11.417499999999999,
901,414052N,LLEIDA,463,9718X,TORDERA - GRANYANELLA,,011323E,41.68111111111111,11.534166666666666,
902,422759N,LLEIDA,1273,9689X,TORRE DE CABDELLA ,,005927E,42.46638888888889,6.535277777777778,
903,420401N,LLEIDA,515,9707,LLIMIANA,,005426E,42.066944444444445,5.701666666666667,
904,421217N,LLEIDA,807,9698U,TALARN,08112,005153E,42.20472222222222,5.2508333333333335,
905,415224N,LLEIDA,520,9724X,OS DE BALAGUER,,004522E,41.873333333333335,4.867222222222223,
906,413902N,LLEIDA,388,9720X,TÀRREGA,08173,010858E,41.650555555555556,11.418888888888889,
907,413326N,TARRAGONA,657,9726E,LLORAC,,011834E,41.55722222222222,12.384444444444444,
908,420645N,HUESCA,765,9756X,BENABARRE,,002848E,42.112500000000004,3.402222222222222,
909,413701N,LLEIDA,252,9729X,MOLLERUSSA,,005160E,41.61694444444444,5.266666666666667,
910,423012N,LLEIDA,1089,9744B,VALL DE BOÍ,,004756E,42.50333333333333,5.251666666666667,
911,421907N,HUESCA,760,9751,SOPEIRA,,004449E,42.31861111111112,4.735833333333334,
912,413734N,LLEIDA,186,9771C,LLEIDA,08171,003553E,41.626111111111115,3.9175,
913,412158N,LLEIDA,673,9772X,LA POBLA DE CÉRVOLES,,005449E,41.36611111111111,5.735833333333334,
914,413702N,LLEIDA,199,9771,"LLEIDA, OBSERVATORIO",,003716E,41.617222222222225,4.1850000000000005,
915,412449N,LLEIDA,392,9775X,EL SOLERÀS,,004042E,41.41361111111111,4.067222222222222,
916,423748N,HUESCA,992,9784P,BIELSA,08103,001329E,42.63,1.5358333333333332,
917,423736N,HUESCA,1020,9814A,TORLA,08101,000642W,42.626666666666665,-1.0672222222222223,
918,423922N,HUESCA,1905,9814I,"TORLA-ORDESA, EL CEBOLLAR",08919,000728W,42.65611111111111,-1.202222222222222,
919,412336N,LLEIDA,488,9776D,ELS TORMS,,004403E,41.39333333333333,4.6675,
920,423919N,HUESCA,1206,9812M,"PARADOR DE ORDESA, PARQUE NACIONAL ORDESA Y MONTEPERDIDO",,000557W,42.655277777777776,-0.918611111111111,
921,423815N,HUESCA,1076,9814X,TORLA - ORDESA,,000643W,42.6375,-1.0675,
922,422518N,HUESCA,610,9808X,"AÍNSA-SOBRARBE, LA SERRETA",,000817E,42.42166666666667,1.3519444444444446,
923,423558N,HUESCA,1120,9838B,BENASQUE,,003114E,42.599444444444444,3.1844444444444444,
924,422837N,HUESCA,825,9843A,SEIRA,,002603E,42.47694444444445,3.0008333333333335,
925,423318N,HUESCA,2374,9839V,"CERLER, COGULLA",08923,003235E,42.555,3.3847222222222224,
926,420117N,HUESCA,305,9866C,BARBASTRO,,000826E,42.021388888888886,1.3683333333333334,
927,421205N,HUESCA,600,9855E,"CAPELLA, LAGUARRES",,002758E,42.20138888888889,3.252222222222222,
928,414757N,HUESCA,300,9894Y,SARIÑENA,,000939W,41.799166666666665,-1.5525,
929,420820N,HUESCA,463,9901X,HUESCA,,002342W,42.138888888888886,-2.567222222222222,
930,420504N,HUESCA,546,9898,"HUESCA, AEROPUERTO",08094,001932W,42.08444444444444,-2.5505555555555555,
931,414626N,HUESCA,380,9908X,LANAJA,,001959W,41.77388888888889,-2.585833333333333,
932,413710N,HUESCA,178,9911X,BALLOBAR,,001116E,41.61944444444445,1.185,
933,414651N,HUESCA,218,9918Y,"TAMARITE DE LITERA, LA MELUSA",,002237E,41.780833333333334,2.3852777777777776,
934,405224N,TERUEL,483,9935X,VALDERROBRES,,000847E,40.873333333333335,1.4019444444444444,
935,413129N,HUESCA,170,9924X,FRAGA,,002120E,41.52472222222222,2.2,
936,410018N,TARRAGONA,112,9975X,RASQUERA,,003649E,41.005,4.069166666666667,
937,405711N,TARRAGONA,495,9946X,HORTA DE SANT JOAN,,001842E,40.95305555555556,2.4005555555555556,
938,404913N,TARRAGONA,50,9981A,ESTACIÓN DE TORTOSA (ROQUETES),08238,002936E,40.82027777777778,3.5516666666666663,
939,411038N,TARRAGONA,370,9947X,LA POBLA DE MASSALUCA,,002112E,41.17722222222222,2.1838888888888888,
940,411458N,TARRAGONA,363,9961X,CABACÉS,,004407E,41.24944444444444,4.668611111111112,
941,404157N,TARRAGONA,1,9987P,SANT JAUME D'ENVEJA,08240,004836E,40.69916666666666,5.385,
942,424201N,LLEIDA,1161,9990X,"NAUT ARAN, ARTIES ",08107,005237E,42.70027777777778,5.3852777777777785,
943,424131N,LLEIDA,2467,9988B,CAP DE VAQUÈIRA,08936,005826E,42.69194444444444,6.368333333333334,
944,424634N,LLEIDA,722,9994X,BOSSÒST,,004123E,42.77611111111111,4.200833333333334,
945,405517N,TERUEL,1006,9998X,BELLO,,012940W,40.921388888888885,-13.566666666666666,
946,430528N,NAVARRA,334,9995Y,VALCARLOS/LUZAIDE,,011803W,43.09111111111111,-12.334166666666667,
